X,Y,OBJECTID,VCID,VC_Site_Name,VC_Site_Room,VC_Site_address,VC_Site_city,VC_Site_ZIP,Voting_Period_Type,number_of_BMDs,VC_Size
-13195345.4239,4054492.4727,3546,14232,The Valley Vineyard Christian Church,Fellowship Hall,6642 Reseda Blvd,Reseda,91335,4 Day,,
-13163956.7445,4045408.8756,3547,5479,AYAC Mesdjian Center,Banquet Hall,1811 S Glendale Ave,Glendale,91205,11 Day,,
-13196577.0674,4059200.3721,3548,12620,Napa Street Elementary School,Auditorium,19010 Napa St,Northridge,91324,4 Day,,
-13165986.4384,4037834.0867,3549,14016,Regis House Community Center,Library-Big Room,2212 Beverly Blvd,Los Angeles,90057,4 Day,,
-13144256.7023,4039448.7177,3550,4390,Rosemead Community Recreation Center,Multi-Purpose Room 1,3936 Muscatel Ave,Rosemead,91770,4 Day,,
-13153414.2566,4034321.7122,3551,13246,Nueva Maravilla Housing Community,Community Room,4919 E Cesar E Chavez Ave ,Los Angeles,90022,4 Day,,
-13178313.122,4012852.2897,3552,6441,Cornerstone Christian Fellowship,Fellowship Hall,300 N Redondo Ave,Manhattan Beach,90266,4 Day,,
-13196669.7333,4068347.064,3553,9851,Castlebay Lane Elementary School,Performing Arts Center,19010 Castlebay Ln,Porter Ranch,91326,4 Day,,
-13155949.3805,4008532.3018,3554,10948,Carmelitos Community Center,Multi-Purpose Room,851 E Via Carmelitos,Long Beach,90805,4 Day,,
-13149890.0664,4041298.8339,3555,203,Alhambra Civic Center Library,Reese Hall,101 S 1st St,Alhambra,91801,4 Day,,
-13185164.3336,4038241.9219,3556,13198,UCLA Ackerman Union,2nd Floor Bruin Reception Room,308 Westwood Plz,Los Angeles,90095,4 Day,,
-13164838.7836,4036173.335,3557,14153,Central City Neighborhood Partners,Atrium,501 S Bixel St,Los Angeles,90017,11 Day,,
-13149980.4342,4004616.6221,3558,12610,Wardlow Park Community Center,Social Hall,3457 Stanbridge Ave,Long Beach,90808,4 Day,,
-13198355.3451,4056002.3639,3559,13079,Vietnamese Association of SFV,Main Room,7245 Corbin Ave,Winnetka,91306,11 Day,,
-13192974.5095,4033896.4897,3560,363,Rustic Canyon Recreation Center,Gallery,601 Latimer Rd,Santa Monica,90402,4 Day,,
-13182379.9886,4036694.3021,3561,9461,Westfield Century City,Community Room,10250 Santa Monica Blvd,Los Angeles,90067,4 Day,,
-13158564.0496,4034045.0522,3562,10834,Boyle Heights Senior Center,Art Room,2839 E 3rd St,Los Angeles,90033,11 Day,,
-13181306.5681,4032586.7085,3563,10024,IMAN Cultural Center,Community Room,3376 Motor Ave,Los Angeles,90034,4 Day,,
-13154540.067,4030569.0577,3564,214,Bristow Park Community Center,Meeting Room,1466 S McDonnell Ave,Commerce,90040,4 Day,,
-13150578.6824,4014148.6012,3565,6627,IOOF Bellflower Lodge 463,Meeting Hall,15720 Clark Ave,Bellflower,90706,11 Day,,
-13148198.9746,4052829.8606,3566,12597,Tekeyan Cultural Association,Hall,1901 N Allen Ave ,Altadena,91001,11 Day,,
-13192208.2169,4064697.8904,3567,13932,Granada Elementary School,Auditorium,17170 Tribune St,Granada Hills,91344,4 Day,,
-13116752.4579,4110227.7475,3568,11779,Stephen Sorensen Park,Multi-Purpose Room,16801 E Ave P,Palmdale,93591,11 Day,,
-13164509.7216,4010754.5292,3569,3698,Cal State University Dominguez Hills,EE-1213 Auditorium,1000 E Victoria St,Carson,90747,4 Day,,
-13179703.1381,4051901.4879,3570,14157,Adat Ari El,Jacoby Social and Sisterhood Lounge,12020 Burbank Blvd,Valley Village,91607,4 Day,,
-13164603.6579,4029249.1153,3571,14339,George Washington Carver Middle School,Auditorium,4410 McKinley Ave,Los Angeles,90011,4 Day,,
-13172491.8477,4050860.8992,3572,9859,Buena Vista Branch Library,Meeting Room,300 N Buena Vista St,Burbank,91505,4 Day,,
-13182104.6702,4050025.7804,3573,5953,Riverside Drive Elementary School,Auditorium,13061 Riverside Dr,Sherman Oaks,91423,4 Day,,
-13132696.7158,4105972.9734,3574,11726,Jackie Robinson Park,Carroll Building,8773 E Avenue R Ave,Littlerock,93543,4 Day,,
-13131100.8257,4023123.5014,3575,13031,The Park,Gymnasium,1885 Hacienda Rd,La Habra Heights,90631,4 Day,,
-13151824.8455,4024526.5188,3576,416,Bell Gardens Veterans Park,Ross Hall Auditorium,6662 Loveland St,Bell Gardens,90201,11 Day,,
-13185739.4404,4034921.981,3577,13541,Felicia Mahood Multipurpose Center,Lobby,11338 Santa Monica Blvd,Los Angeles,90025,4 Day,,
-13177907.7194,4006148.9618,3578,12864,Alta Vista Park,Community Center,715 Julia Ave,Redondo Beach,90277,4 Day,,
-13202630.8288,4053691.5356,3579,6031,Owensmouth Gardens,Community Room,6300 Owensmouth Ave,Woodland Hills,91367,4 Day,,
-13192895.7948,4079384.0358,3580,9452,Dr J Michael McGrath Elementary School,Library,21501 Deputy Jake Dr ,Newhall,91321,4 Day,,
-13137876.8895,4040221.1233,3581,12969,Lambert Park,Auditorium,11431 McGirk Ave ,El Monte,91732,11 Day,,
-13174171.9732,4041915.9092,3582,174,Will and Ariel Durant Library,Community Room,7140 W Sunset Blvd,Los Angeles,90046,4 Day,,
-13143195.5226,4017508.8663,3583,13565,LA County Registrar-Recorder,Room 3201,12400 Imperial Hwy,Norwalk,90650,11 Day,,
-13124403.5846,4043902.4168,3584,12264,Center Middle School,Auditorium,5500 N Cerritos Ave,Azusa,91702,4 Day,,
-13143551.5576,4037096.901,3585,11784,Garvey Center,Frank G Tripepi Room,9108 Garvey Ave ,Rosemead,91770,4 Day,,
-13118975.3744,4027701.3198,3586,14464,South Pointe Middle School,Multi-Purpose Room,20671 Larkstone Dr,Walnut,91789,4 Day,,
-13172684.5168,4036325.1263,3587,14534,Los Angeles High School,Memorial Hall,4650 W Olympic Blvd,Los Angeles,90019,4 Day,,
-13155326.0304,4040532.4059,3588,8746,Barrio Action Youth and Family Center,Gymnasium,4927 Huntington Dr N 200,Los Angeles,90032,11 Day,,
-13156708.7496,4048075.1489,3589,13290,Eagle Rock Recreation Center,Multi-Purpose Room,1100 Eagle Vista Dr,Los Angeles,90041,4 Day,,
-13207329.3364,4052356.4109,3590,12428,Woodland Hills Presbyterian Church,Fellowship Hall,5751 Platt Ave,Woodland Hills,91367,11 Day,,
-13156710.0788,4036005.3176,3591,6932,Harrison Elementary School,Auditorium,3529 City Terrace Dr,Los Angeles,90063,4 Day,,
-13188769.9796,4055098.8889,3592,6051,Bassett Street Elementary School,Auditorium,15756 Bassett St,Van Nuys,91406,4 Day,,
-13164045.4422,4020417.098,3593,2959,Maxine Waters Employment Center,Mobley Center,10925 S Central Ave,Los Angeles,90059,4 Day,,
-13159875.9909,4046684.9104,3594,12964,Greater Los Angeles Agency on Deafness,Dining Room,2222 Laverna Ave,Los Angeles,90041,4 Day,,
-13156083.4096,4023858.3427,3595,1732,Elizabeth Learning Center,Multi-Purpose Room,4811 Elizabeth St,Cudahy,90201,4 Day,,
-13152478.7827,4014283.1577,3596,3797,Progress Park,Auditorium,15500 Downey Ave,Paramount,90723,4 Day,,
-13201026.401,4051680.3436,3597,12317,Woodland Hills Academy,Multi-Purpose Room,20800 Burbank Blvd,Woodland Hills,91367,4 Day,,
-13116851.6341,4028687.0801,3598,3968,Diamond Bar City Hall,Windmill Community Room,21810 Copley Dr,Diamond Bar,91765,11 Day,,
-13152864.9934,4006422.8517,3599,13175,Lakewood Country Club,Hacienda Room,3101 Carson St   ,Lakewood,90712,4 Day,,
-13150864.3301,4030652.6257,3600,10936,Saybrook Park,Community Room,6250 Northside Dr,Los Angeles,90022,4 Day,,
-13155134.8365,3999687.4282,3601,3193,MacArthur Park,Social Hall,1321 E Anaheim St,Long Beach,90813,4 Day,,
-13162389.1066,4057632.1815,3602,14619,La Crescenta Woman's Club,Meeting Room and Tea Room,4004 La Crescenta Ave,La Crescenta,91214,11 Day,,
-13189285.1059,4029891.2089,3603,4399,Joslyn Park,Rec Building Community Room,633 Kensington Rd,Santa Monica,90405,4 Day,,
-13197015.7437,4084731.003,3604,9623,Valencia Branch Library,Multi-Purpose Room,23743 Valencia Blvd,Santa Clarita,91355,4 Day,,
-13188487.1675,4035562.7089,3605,12389,Brentwood Science Magnet School,Auditorium,740 S Gretna Green Way,Los Angeles,90049,4 Day,,
-13207663.4665,4049289.9545,3606,212,Founders Hall,Behind the Library,200 Civic Center Way,Calabasas,91302,11 Day,,
-13199279.9725,4053374.1774,3607,13187,Los Angeles Pierce College,Building 600,6201 Winnetka Ave,Woodland Hills,91367,4 Day,,
-13133380.6084,4030544.2321,3608,4122,Hacienda Heights Comm and Rec Center,Banquet Rooms A B and C,1234 Valencia Ave,Hacienda Heights,91745,4 Day,,
-13188910.1711,4062758.2531,3609,5878,Vintage Magnet Elementary School,Auditorium,15848 Stare St,North Hills,91343,4 Day,,
-13138604.0637,4015190.8679,3610,6093,Neff Park Barn,Barn Hall,14300 San Cristobal Dr,La Mirada,90638,4 Day,,
-13157347.919,4034748.3573,3611,12330,Malabar Street Elementary School,Auditorium,3200 Malabar St ,Los Angeles,90063,4 Day,,
-13135555.0677,4022746.7983,3612,14383,La Serna High School,Cafeteria,15301 Youngwood Dr,Whittier,90605,4 Day,,
-13149079.186,4048274.1676,3613,13885,Pasadena City College,Creveling Lounge,1570 E Colorado Blvd,Pasadena,91106,4 Day,,
-13166976.7455,4005098.401,3614,8561,Veterans Park,Gymnasium,22400 Moneta Ave ,Carson,90745,11 Day,,
-13185925.4859,4065310.0592,3615,13152,San Fernando Spanish SDA Church,Gymnasium,14646 Chatsworth Dr,Mission Hills,91345,4 Day,,
-13142097.2224,4043164.2323,3616,10859,Temple City Unified School District,Boardroom,9700 Las Tunas Dr,Temple City,91780,4 Day,,
-13159454.2708,4047295.0783,3617,175,Eagle Rock Branch Library,Meeting Room,5027 Caspar Ave ,Los Angeles,90041,4 Day,,
-13186436.7645,4048920.013,3618,6103,Sherman Oaks Elementary Charter School,Auditorium,14755 Greenleaf St,Sherman Oaks,91403,4 Day,,
-13183677.1595,4067985.4048,3619,14408,Mission City Church,Gymnasium,777 N Maclay Ave,San Fernando,91340,4 Day,,
-13170119.3831,4029157.9387,3620,14325,Faith In Christ Ministries,Community Room,4501 S Western Ave,Los Angeles,90062,4 Day,,
-13165203.5977,4028557.3586,3621,12984,Avalon Carver Community Center,Auditorium,4920 Avalon Blvd,Los Angeles,90011,4 Day,,
-13198136.4706,4051990.7672,3622,5281,Hollywood Masonic Lodge 355,Banquet Hall,19626 Ventura Blvd ,Tarzana,91356,11 Day,,
-13148016.1338,4002473.5748,3623,8258,St Gregory's Episcopal Church,Fellowship Hall,6201 E Willow St,Long Beach,90815,4 Day,,
-13170034.864,4038099.3651,3624,13752,Anderson Munger Family YMCA,Multi-Purpose Room,4301 W 3rd St,Los Angeles,90020,11 Day,,
-13178244.9086,4037575.6594,3625,13854,Horace Mann Elementary School,Auditorium,8701 Charleville Blvd,Beverly Hills,90211,4 Day,,
-13148611.4543,4007733.7526,3626,13793,Lakewood Youth Center,East and West Rooms,4658 Woodruff Ave,Lakewood,90713,4 Day,,
-13113235.8951,4028616.7625,3627,13903,Diamond Bar Center,Grand Ballroom,1600 Grand Ave,Diamond Bar,91765,4 Day,,
-13167959.7057,4029841.6284,3628,12849,Menlo Avenue Elementary School,Auditorium,4156 Menlo Ave,Los Angeles,90037,4 Day,,
-13163226.3356,4019683.2036,3629,13866,Nickerson Gardens Gym,Gymnasium,11251 Compton Ave,Los Angeles,90059,4 Day,,
-13133499.1587,4034782.682,3630,1751,Willow Adult Education Center,Cafeteria,14101 Nelson Ave,La Puente,91746,11 Day,,
-13136328.182,4021509.3391,3631,3155,E Whittier United Methodist Church,Geer Hall,10005 Cole Rd,Whittier,90603,4 Day,,
-13157406.0629,4036443.2367,3632,548,Boys and Girls Club of Ramona Gardens,Gymnasium,2830 Lancaster Ave,Los Angeles,90033,4 Day,,
-13179902.3616,4054253.171,3633,9339,Roy Romer Middle School,Multi-Purpose Room,6501 Laurel Canyon Blvd,North Hollywood,91606,4 Day,,
-13162409.5123,4037430.9185,3634,6404,Castelar Elementary School,Auditorium,840 Yale St,Los Angeles,90012,4 Day,,
-13164310.7642,4047547.6207,3635,14179,Glendale Youth Center,Main Room and Waiting Room,211 W Chestnut St,Glendale,91204,4 Day,,
-13149729.0991,4016140.5708,3636,14234,T Mayne Thompson Park,Gymnasium,14001 Bellflower Blvd,Bellflower,90706,4 Day,,
-13150514.804,3999797.055,3637,13664,International City Masonic Center,Hall,5155 E Pacific Coast Hwy,Long Beach,90804,11 Day,,
-13157852.7034,4091919.5102,3638,12521,Acton Community Club,Clubhouse,3748 Nickels Ave,Acton,93510,4 Day,,
-13145443.5154,4011421.5822,3639,12249,Luther Burbank Elementary School,Multi-Purpose Room,17711 Roseton Ave ,Artesia,90701,4 Day,,
-13197258.3264,4062604.0786,3640,13397,Alfred B Nobel Charter Middle School,Parent Center Room 2,9950 Tampa Ave ,Northridge,91324,4 Day,,
-13146729.3888,4047645.1246,3641,12803,Armenian Cilicia Evangelical Church,Derian Hall,339 S Santa Anita Ave,Pasadena,91107,11 Day,,
-13122601.2605,4041466.8217,3642,10995,Covina Senior and Community Center,California Rooms 1-3,815 N Barranca Ave,Covina,91723,4 Day,,
-13166001.8508,4020670.1792,3643,2035,107th Street Elementary School,Teachers Development Center,147 E 107th St ,Los Angeles,90003,4 Day,,
-13163965.5933,4044234.3443,3644,2569,Atwater Avenue Elementary School,Auditorium,3271 Silver Lake Blvd,Los Angeles,90039,4 Day,,
-13160808.4599,4040819.4268,3645,1845,Cypress Park Recreation Center,Auditorium,2630 Pepper Ave,Los Angeles,90065,4 Day,,
-13160032.736,4021347.5434,3646,2470,Montara Avenue Elementary School,Multi-Purpose Room,10018 Montara Ave,South Gate,90280,4 Day,,
-13183867.0629,4062715.2378,3647,7304,Sharp Avenue Elementary School,Auditorium,13800 Pierce St,Arleta,91331,4 Day,,
-13203264.4977,4063480.4808,3648,14290,Chatsworth Park Urban Planning Magnet,Auditorium,22005 Devonshire St,Chatsworth,91311,4 Day,,
-13175536.7202,4057891.5936,3649,6147,Glenwood Elementary School,Auditorium,8001 Ledge Ave,Sun Valley,91352,4 Day,,
-13182104.4358,4018568.1686,3650,219,El Segundo Public Library,S Carter Friends of the Library Comm Rm,111 W Mariposa Ave,El Segundo,90245,4 Day,,
-13165091.5087,4034919.6645,3651,13805,Hotel Figueroa,Gran Sala,939 S Figueroa St ,Los Angeles,90015,11 Day,,
-13138937.1749,4040751.6758,3652,5400,Jeff Seymour Fam Ctr-Mulhall Elem Sch,Multi-Purpose Room,10900 Mulhall St,El Monte,91731,4 Day,,
-13158594.2532,4018971.5698,3653,519,Henning Youth Center,Gymnasium,11409 Birch St ,Lynwood,90262,4 Day,,
-13164222.714,4048779.4257,3654,10890,Impressions Banquet Hall,Banquet Hall,212 N Orange St,Glendale,91203,4 Day,,
-13142663.346,4008791.1591,3655,8705,Don Knabe Comm Regional Park,Multi-Purpose Room,19700 Bloomfield Ave,Cerritos,90703,4 Day,,
-13184060.4256,4057695.3935,3656,5884,Ranchito Avenue Elementary School,Auditorium,7940 Ranchito Ave,Panorama City,91402,4 Day,,
-13176013.8257,4023237.6539,3657,14195,Inglewood Unified School District,Dr Ernest Shaw Boardroom,401 S Inglewood Ave ,Inglewood,90301,4 Day,,
-13162026.3283,4021560.3088,3658,13348,Jordan Downs Recreation Center,Old Gymnasium,9900 Grape St ,Los Angeles,90002,4 Day,,
-13123163.0605,4042815.9779,3659,7385,Tri-Community Adult School-Trade-Tech,Cafeteria,231 E Stephanie Dr,Covina,91722,4 Day,,
-13173169.7068,4030139.3709,3660,1469,Baldwin Hills Crenshaw,Community Room Level 1,3650 W Martin Luther King Jr Blvd,Los Angeles,90008,11 Day,,
-13203047.7639,4088237.3861,3661,14358,Higher Vision Church,Multi-Purpose Room,28776 The Old Rd,Valencia,91355,11 Day,,
-13162536.0253,4036949.6977,3662,196,Chinatown Branch Library,Meeting Room,639 N Hill St,Los Angeles,90012,4 Day,,
-13158599.5054,4025106.7731,3663,4596,Salt Lake Park,Social Hall,3401 E Florence Ave,Huntington Park,90255,4 Day,,
-13134466.0416,4046040.6776,3664,4836,Maxwell Academy,Cafe,733 Euclid Ave,Duarte,91010,4 Day,,
-13176049.9759,4040078.7058,3665,1928,Fairfax Senior Citizen Center,Auditorium,7929 Melrose Ave,Los Angeles,90046,4 Day,,
-13172363.7473,4028286.8797,3666,11729,Crenshaw High School,South Side Gymnasium,5010 11th Ave,Los Angeles,90043,4 Day,,
-13144929.278,4014138.6085,3667,14367,Huerta Elementary School,Multi-Purpose Room,15415 Pioneer Blvd ,Norwalk,90650,4 Day,,
-13157925.5478,4040263.9709,3668,12739,Glen Alta Span School,Auditorium,3410 Sierra St,Los Angeles,90031,4 Day,,
-13174167.3417,4004364.5578,3669,2044,Levy Adult Center,Multi-Purpose Room,3420 W 229th Pl,Torrance,90505,4 Day,,
-13179638.0731,4029626.8671,3670,12670,Rotary Plaza,Community Room,5100 Overland Ave,Culver City,90230,4 Day,,
-13185197.2577,4053964.9039,3671,14054,Central Lutheran Church,Fellowship Hall,6425 Tyrone Ave ,Van Nuys,91401,4 Day,,
-13126444.2029,4043911.0143,3672,5778,Valleydale Park,Auditorium,5525 N Lark Ellen Ave,Azusa,91702,11 Day,,
-13153368.3201,4019389.3949,3673,14583,Rancho Los Amigos National Rehab Center,Auditorium,7601 Imperial Hwy,Downey,90242,4 Day,,
-13169011.332,4039265.5115,3674,5925,Alexandria Elementary School,Auditorium,4211 Oakwood Ave,Los Angeles,90004,4 Day,,
-13170821.1888,3997400.7007,3675,12288,Dodson Middle School,Library,28014 S Montereina Dr,Rancho Palos Verdes,90275,4 Day,,
-13175068.7121,4002602.1019,3676,13528,Walteria Park,Meeting Room,3855 W 242nd St,Torrance,90505,11 Day,,
-13183457.4309,4031199.2048,3677,1859,Mar Vista Recreation Center,Auditorium,11430 Woodbine St,Los Angeles,90066,11 Day,,
-13170073.3253,4024382.6044,3678,11752,Bethel AME Church LA,AA Morgan Fellowship Hall,7900 S Western Ave,Los Angeles,90047,4 Day,,
-13166494.5677,3999157.5673,3679,12691,Wilmington VFW Post 2967,Assembly Hall,1130 W Anaheim St,Wilmington,90744,11 Day,,
-13167977.1301,4030350.1515,3680,13375,Ahmanson Senior Center,Ballroom,3990 Bill Robertson Ln,Los Angeles,90037,11 Day,,
-13169190.8162,3991879.8805,3681,14388,Leland Street Elementary School,Auditorium,2120 S Leland St,San Pedro,90731,4 Day,,
-13176924.6382,4011267.7355,3682,9990,Perry Park,Teen Center,2301 Grant Ave,Redondo Beach,90278,4 Day,,
-13177993.616,4051314.5026,3683,1949,North Hollywood Recreation Center,Senior Center,11430 Chandler Blvd,North Hollywood,91601,11 Day,,
-13166021.2116,4017520.6086,3684,123,A C Bilbrew Library,Meeting Room,150 E El Segundo Blvd,Los Angeles,90061,11 Day,,
-13110913.9335,4045502.5629,3685,2062,St John's Episcopal Church,Vicenti Hall,4745 Wheeler Ave,La Verne,91750,4 Day,,
-13204078.8951,4047972.4549,3686,5194,A C Stelle Middle School,Multi-Purpose Room,22450 Mulholland Hwy,Calabasas,91302,4 Day,,
-13155556.1471,4027144.4106,3687,5237,Southeast Rio Vista YMCA,Assembly Room,4801 E 58th St,Maywood,90270,4 Day,,
-13156124.035,4011321.5726,3688,14615,Houghton Park,D T Elvord Community Center Social Hall,6301 Myrtle Ave,Long Beach,90805,4 Day,,
-13141309.683,4045753.9072,3689,6819,Our Savior Lutheran Church,Fellowship Hall,512 W Duarte Rd ,Arcadia,91007,4 Day,,
-13166492.6839,4053341.9212,3690,4870,Brand Studios,Studio 1 and 2,1601 W Mountain St,Glendale,91201,4 Day,,
-13224626.8822,4048225.7569,3691,341,Westlake Village City Hall,Community Room,31200 Oak Crest Dr,Westlake Village,91361,11 Day,,
-13111868.5087,4037606.2616,3692,14376,John Marshall Middle School,Gymnasium,1921 Arroyo Ave,Pomona,91768,4 Day,,
-13175503.5914,4006298.6703,3693,7149,Jefferson Middle School,Multi-Purpose Room,21717 Talisman St,Torrance,90503,4 Day,,
-13185751.1145,4067231.4986,3694,498,Las Palmas Park,Arts and Crafts Room,505 S Huntington St ,San Fernando,91340,11 Day,,
-13158519.5381,4034434.8275,3695,6405,Tenrikyo Church,Dining Room,117 N Saratoga St,Los Angeles,90033,4 Day,,
-13126582.2667,4037133.2811,3696,8226,Cameron Park Community Center,Multi-Purpose Room,1305 E Cameron Ave,West Covina,91790,4 Day,,
-13184239.9855,4036028.9054,3697,14582,Emerson Community Charter School,Gymnasium,1650 Selby Ave,Los Angeles,90024,4 Day,,
-13168639.4259,4052470.3703,3698,12401,Glendale Church of Christ,Multi-Purpose Room,2021 W Glenoaks Blvd,Glendale,91201,4 Day,,
-13120526.0033,4047623.4253,3699,2225,Glendora United Methodist Church,Dining Room,201 E Bennett Ave,Glendora,91741,4 Day,,
-13197954.8582,4090702.8017,3700,11494,Rio Norte Junior High School,Multi-Purpose Room,28771 Rio Norte Dr,Santa Clarita,91354,4 Day,,
-13184648.1272,4119537.8248,3701,10735,The Lakes Community Center,Community Room,17520 Elizabeth Lake Rd,Lake Hughes,93532,4 Day,,
-13126462.7527,4032201.242,3702,13040,St Martha Catholic Church,McNamara Hall,444 N Azusa Ave,La Puente,91744,4 Day,,
-13169225.9055,4005082.6231,3703,13356,Normandale Recreation Center,Classroom,22400 Halldale Ave ,Torrance,90501,4 Day,,
-13143539.8977,4106224.5558,3704,12290,Mountain View Estates,Clubhouse,3255 E Avenue R Ave,Palmdale,93550,4 Day,,
-13224314.4802,4031626.1899,3705,14522,Christian Science Church-Malibu,Sunday School Building Reading Room,28635 Pacific Coast Hwy,Malibu,90265,4 Day,,
-13153439.3519,4052025.5701,3706,11318,Red Hen Press,Literary Center,1540 Lincoln Ave ,Pasadena,91103,4 Day,,
-13165847.9629,4003756.4122,3707,14329,Foisia Park,Gymnasium,23410 Catskill Ave ,Carson,90745,4 Day,,
-13185610.8742,4050724.7527,3708,14021,Sherman Oaks East Valley Adult Center,L Room,5056 Van Nuys Blvd,Sherman Oaks,91403,4 Day,,
-13176236.7978,4033565.391,3709,1873,Marvin Avenue Elementary School,Auditorium,2411 S Marvin Ave,Los Angeles,90016,4 Day,,
-13188865.731,4064848.5266,3710,5876,Haskell STEAM Magnet Elementary School,Auditorium,15850 Tulsa St   ,Granada Hills,91344,4 Day,,
-13180683.2103,4022840.202,3711,13099,LAFD Station 5,Community Room,8900 S Emerson Ave ,Los Angeles,90045,4 Day,,
-13155400.4266,3998131.3856,3712,12395,Long Beach Senior Center,Auditorium,1150 E 4th St,Long Beach,90802,11 Day,,
-13131198.2728,4040219.0008,3713,272,Baldwin Park Arts and Recreation Center,Multi-Purpose Room,14403 Pacific Ave ,Baldwin Park,91706,4 Day,,
-13144670.3334,4108028.2314,3714,6017,Palmdale Elks Lodge 2027,Meeting Room,2705 E Avenue Q,Palmdale,93550,4 Day,,
-13140874.5847,4035005.8951,3715,13815,South El Monte Community Center,Gymnasium,1530 Central Ave,South El Monte,91733,4 Day,,
-13177637.8427,4037017.2141,3716,13861,La Cienega Tennis Center,Rodeo Room,325 S La Cienega Blvd,Beverly Hills,90211,4 Day,,
-13180791.9435,4046238.0774,3717,1568,TreePeople,Conference Center,12601 Mulholland Dr,Beverly Hills,90210,11 Day,,
-13107005.0398,4033243.3187,3718,446,Philadelphia Park Community Center,Main Room,700 Philadelphia St,Pomona,91766,4 Day,,
-13188827.1195,4060755.2699,3719,2399,James Monroe High School,Multi-Purpose Room,9229 Haskell Ave,North Hills,91343,4 Day,,
-13154522.2986,4001552.6293,3720,256,Signal Hill Public Library,Community Room,1800 E Hill St,Signal Hill,90755,4 Day,,
-13182726.6996,4024379.5587,3721,11783,Loyola Marymount University,McIntosh Center,1 LMU Dr,Los Angeles,90045,4 Day,,
-13156512.972,4021580.5699,3722,13526,South Gate Park Sports Center,Conference Room,9520 Hildreth Ave ,South Gate,90280,11 Day,,
-13146389.9909,4023862.0464,3723,414,Rivera Park Community Recreation Center,Auditorium,9530 Shade Ln,Pico Rivera,90660,4 Day,,
-13169776.6213,4013336.9683,3724,10895,Rush Gymnasium,Gymnasium,1651 W 162nd St,Gardena,90247,11 Day,,
-13148918.626,4040978.688,3725,470,YMCA West San Gabriel Valley,Multi-Purpose Room,401 Corto St,Alhambra,91801,4 Day,,
-13169825.2966,4019391.3745,3726,4519,Los Angeles Southwest College,SOCTE Bldg Multi-Purpose Room 127,1600 W Imperial Hwy,Los Angeles,90047,11 Day,,
-13144704.3774,4015819.7312,3727,13306,Norwalk Senior Center,Activity Room A,14040 San Antonio Dr,Norwalk,90650,4 Day,,
-13163074.4569,4018442.1115,3728,11062,Martin Luther King Jr Outpatient Center,Interns-Residents Bldg Terrace Hall Rm,12012 Compton Ave,Los Angeles,90059,4 Day,,
-13163689.7898,4046951.8444,3729,5449,Armenian Church of the Nazarene,Fellowship Hall,411 E Acacia Ave,Glendale,91205,4 Day,,
-13157801.6365,4018755.5673,3730,310,Bateman Hall,Thompson Auditorium,11331 Ernestine Ave ,Lynwood,90262,11 Day,,
-13137836.2415,4018034.1957,3731,2636,El Camino High School,Multi-Purpose Room,14625 Keese Dr,Whittier,90604,4 Day,,
-13181950.9823,4055327.7452,3732,2754,James Madison Middle School,Auditorium,13000 Hart St,North Hollywood,91605,4 Day,,
-13182425.4224,4031135.725,3733,6896,Charnock Road Elementary School,Auditorium,11133 Charnock Rd,Los Angeles,90034,4 Day,,
-13184014.1879,4066591.6553,3734,11810,San Fernando Recreation Park,Multi-Purpose Room,208 Park Ave,San Fernando,91340,4 Day,,
-13153159.0468,4013913.7804,3735,6804,Elks Lodge 1804,Banquet Room,8108 Alondra Blvd,Paramount,90723,4 Day,,
-13158116.7142,3999053.0625,3736,6503,Drake Park,Social Hall,951 Maine Ave,Long Beach,90813,4 Day,,
-13164402.8542,4039371.9189,3737,1968,Logan Academy of Global Ecology,Auditorium,1711 Montana St,Los Angeles,90026,4 Day,,
-13189486.3253,4083722.0476,3738,2584,La Mesa Junior High School,Multi-Purpose Room,26623 May Way,Santa Clarita,91351,4 Day,,
-13112714.8686,4043069.4321,3739,12544,Holy Name of Mary Catholic Church,Parish Hall,724 E Bonita Ave,San Dimas,91773,4 Day,,
-13185090.0902,4036758.3262,3740,463,Hammer Museum,Bay-Nimoy Studio,10899 Wilshire Blvd,Los Angeles,90024,4 Day,,
-13179551.3408,4065500.0345,3741,195,Lake View Terrace Branch Library,Meeting Room,12002 Osborne St,Sylmar,91342,4 Day,,
-13169597.8848,4020538.8431,3742,12917,First New Christian Fellowship Church,Jackson Hall,1555 W 108th St,Los Angeles,90047,4 Day,,
-13124288.3186,4040931.9125,3743,6623,Covina United Methodist Church,Dougherty Hall,437 W San Bernardino Rd ,Covina,91723,11 Day,,
-13177989.727,4052734.299,3744,14670,Maurice Sendak Elementary School,Multi-Purpose Room,11414 Tiara St,North Hollywood,91601,4 Day,,
-13152440.47,4040195.6004,3745,13946,LA County Department of Public Works,Conference Rooms A B and C,900 S Fremont Ave,Alhambra,91803,11 Day,,
-13175120.8421,4000292.4108,3746,7203,First Baptist Church of Palos Verdes,Calhoun Hall,28 Moccasin Ln ,Rolling Hills Estates,90274,4 Day,,
-13124661.1105,4030107.6438,3747,10934,Sunshine Park,Community Room,515 Deepmead Ave,La Puente,91744,11 Day,,
-13167769.7003,4026893.0084,3748,14525,Augustus Hawkins High School,Small Gymnasium,825 W 60th St,Los Angeles,90044,4 Day,,
-13185860.6893,4070794.7621,3749,8035,Olive Vista Middle School,Miles Auditorium,14600 Tyler St,Sylmar,91342,4 Day,,
-13135949.1884,4048771.8058,3750,235,Monrovia Public Library,Community Room,321 S Myrtle Ave,Monrovia,91016,11 Day,,
-13154511.8162,4039908.2625,3751,2494,Sierra Park Elementary School,Auditorium,3170 Budau Ave,Los Angeles,90032,4 Day,,
-13152044.2402,4052028.9182,3752,14523,Octavia E Butler Magnet,Gymnasium,1505 N Marengo Ave,Pasadena,91103,4 Day,,
-13164476.8979,4011719.7119,3753,1913,Stevenson Park,Community Room,17400 Lysander Dr ,Carson,90746,4 Day,,
-13169064.8299,4041148.1681,3754,5899,Ramona Elementary School,Auditorium,1133 N Mariposa Ave,Los Angeles,90029,4 Day,,
-13165049.3952,4027531.3336,3755,12808,Los Angeles Academy Middle School,Multi-Purpose Room,644 E 56th St,Los Angeles,90011,4 Day,,
-13168160.4573,4043011.8886,3756,9291,Elysian Masonic Temple,Dining Room,1900 N Vermont Ave,Los Angeles,90027,11 Day,,
-13170816.832,4063620.5256,3757,14213,New Hope Community Church,Activity Center,10438 Oro Vista Ave,Sunland,91040,4 Day,,
-13206964.0203,4092250.8875,3758,7524,Castaic Middle School,Multi-Purpose Room,28900 Hillcrest Pkwy,Castaic,91384,4 Day,,
-13176988.1769,4057707.9359,3759,186,Sun Valley Branch Library,Meeting Room,7935 Vineland Ave,Sun Valley,91352,4 Day,,
-13178499.562,4014720.3952,3760,13403,Marine Avenue Park,Rocketship Hall,1625 Marine Ave ,Manhattan Beach,90266,4 Day,,
-13124584.7328,4031429.4989,3761,10678,Shadow Oak Park Recreation Center,Community Hall,2121 Shadow Oak Dr,West Covina,91792,4 Day,,
-13157285.5751,4021521.0534,3762,12786,Iglesia Cristiana De South Gate,Gymnasium,9618 Alexander Ave,South Gate,90280,4 Day,,
-13165491.5598,4022284.4686,3763,12346,93rd Street Elementary School,Auditorium,330 E 93rd St,Los Angeles,90003,4 Day,,
-13157167.3529,4014762.2394,3764,9389,E Rancho Dominguez Park,Gymnasium,15116 S Atlantic Ave,Compton,90221,4 Day,,
-13173944.7241,4027805.6352,3765,10762,54th Street Elementary School,Auditorium,5501 Eileen Ave,Los Angeles,90043,4 Day,,
-13139493.0657,4026131.85,3766,3294,First United Methodist Church,Wesley Building Room 120,6725 Friends Ave,Whittier,90601,4 Day,,
-13181698.9997,4065955.8661,3767,7762,Northeast Valley Multipurpose Sr Center,Multi-Purpose Room,11300 Glenoaks Blvd,Pacoima,91331,4 Day,,
-13153616.3634,4009015.3971,3768,13593,Biscailuz Park,Activity Room,2601 Dollar St ,Lakewood,90712,4 Day,,
-13185711.5259,4038142.7638,3769,5394,UCLA De Neve Plaza,Rooms A and B,351 Charles E Young Dr W,Los Angeles,90024,11 Day,,
-13167584.8323,4023035.5534,3770,13241,Algin Sutton Recreation Center,Classroom,8800 S Hoover St,Los Angeles,90044,4 Day,,
-13181936.937,4061659.101,3771,6772,Montague Charter Academy,Auditorium,13000 Montague St,Pacoima,91331,4 Day,,
-13176637.9827,4052216.6822,3772,13108,Jesus Sacred Heart Church,Parish Hall,10837 Collins St ,North Hollywood,91601,4 Day,,
-13174839.8962,4035601.9062,3773,6176,Cochran Avenue Baptist Church,Fellowship Hall,1304 Cochran Ave,Los Angeles,90019,4 Day,,
-13152748.6054,4040252.9154,3774,6363,Emery Park,Gymnasium,2709 Mimosa St,Alhambra,91803,4 Day,,
-13161371.2859,4029196.7302,3775,14188,Holy Angels Church of the Deaf,Fellowship Hall,4433 S Santa Fe Ave ,Vernon,90058,4 Day,,
-13153974.3678,4049883.6557,3776,13329,Rosemont Pavilion,North Warehouse,700 Seco St,Pasadena,91103,4 Day,,
-13145542.6957,4020168.7488,3777,13672,Florence Avenue Foursquare Church,Fellowship Hall,11457 Florence Ave,Santa Fe Springs,90670,4 Day,,
-13139224.3828,4046058.6313,3778,206,Arcadia Public Library,Auditorium,20 W Duarte Rd,Arcadia,91006,4 Day,,
-13188234.2666,4027703.8022,3779,2229,Westminster Avenue Elementary School,Auditorium,1010 Abbot Kinney Blvd ,Venice,90291,4 Day,,
-13161558.9698,4019584.8955,3780,541,Watts Empowerment Center,Gymnasium,2250 E 114th St,Los Angeles,90059,4 Day,,
-13144307.8853,4010078.5798,3781,13275,Artesia Library,Meeting Room,18801 Elaine Ave,Artesia,90701,11 Day,,
-13192811.0668,4058636.9533,3782,13106,St Mary and St Athanasius Church,Basketball Court,17431 Roscoe Blvd,Northridge,91325,4 Day,,
-13125651.3861,4024442.7804,3783,2935,Rowland Heights Community Center,Multi-Purpose Room,18150 Pathfinder Rd,Rowland Heights,91748,4 Day,,
-13174150.4895,4040117.1521,3784,6762,Melrose Avenue Elementary School,Auditorium,731 N Detroit St,Los Angeles,90046,4 Day,,
-13144624.8318,4024778.3234,3785,1769,Pioneer High School,Large Gymnasium,10800 Benavon St,Whittier,90606,4 Day,,
-13166017.2845,4062269.8154,3786,5891,Mountain View Elementary School,Auditorium,6410 Olcott St,Tujunga,91042,4 Day,,
-13174912.2692,4020539.6679,3787,13265,Lennox Library,Meeting Room,4359 Lennox Blvd,Lennox,90304,4 Day,,
-13115780.4693,4036299.695,3788,11786,CA State Polytechnic University Pomona,Building 35 Room 2135 Ursa Minor,3801 W Temple Ave,Pomona,91768,4 Day,,
-13197425.503,4077896.8141,3789,14220,Santa Clarita Athletic Club,Front Room,24640 Wiley Canyon Rd,Newhall,91321,4 Day,,
-13181195.1944,4013210.0569,3790,5820,Neptunian Woman's Club,North Hall,920 Highland Ave ,Manhattan Beach,90266,4 Day,,
-13171017.8471,4017049.0805,3791,10717,Rowley Park,Gymnasium,13220 Van Ness Ave ,Gardena,90249,4 Day,,
-13161020.2238,4051199.5209,3792,11736,Glendale Community College,Student Center Conference Room 212A,1500 N Verdugo Rd,Glendale,91208,11 Day,,
-13170678.3841,4002420.1224,3793,10854,Lomita Park,Tom Rico Center Community Room,24428 Eshelman Ave,Lomita,90717,4 Day,,
-13172871.5672,4054527.6934,3794,14158,Courtyard Los Angeles Burbank Airport,Empire Ballroom,2100 W Empire Ave,Burbank,91504,4 Day,,
-13162295.093,4042577.3829,3795,5208,Sotomayor Arts and Sciences Magnet,Multi-Purpose Room,2050 N San Fernando Rd ,Los Angeles,90065,4 Day,,
-13168325.4486,4040304.2008,3796,4271,Los Angeles City College,Student Union 3rd Flr-Multi-Purpose Rm,855 N Vermont Ave,Los Angeles,90029,4 Day,,
-13159060.0395,4012360.308,3797,1364,Compton College,Multi-Purpose Room,1111 E Artesia Blvd,Compton,90221,4 Day,,
-13158339.8095,4056368.98,3798,11814,La Canada USD Office,Boardroom,4490 Cornishon Ave,La Canada Flintridge,91011,4 Day,,
-13159155.7468,4031561.0553,3799,590,Lou Costello Recreation Center,Senior Center,3141 E Olympic Blvd,Los Angeles,90023,4 Day,,
-13128902.815,4038393.419,3800,340,West Covina City Hall,Community Room,1444 W Garvey Ave S,West Covina,91790,4 Day,,
-13207411.4035,4051761.9969,3801,14316,El Camino Real Charter High School,Anderson Hall,5440 Valley Circle Blvd,Woodland Hills,91367,4 Day,,
-13167430.1498,4062774.3573,3802,1839,Pinewood Avenue Elementary School,Auditorium,10111 Silverton Ave,Tujunga,91042,4 Day,,
-13171481.8657,4063926.2327,3803,11813,Sunland Senior Citizen Center,Senior Club Room,8640 Fenwick St,Sunland,91040,11 Day,,
-13161090.1316,4116787.4216,3804,3126,George Lane Park,Community Room,5520 W Avenue L 8 Ave,Lancaster,93536,11 Day,,
-13160647.7272,4022585.0586,3805,13013,Primera Iglesia Bautista El Peregrino,Meeting Room,2702 Glenwood Pl,South Gate,90280,4 Day,,
-13130428.4793,4105283.2021,3806,11727,Living Stone Cathedral of Worship,Fellowship Hall,37721 100th St E ,Littlerock,93543,4 Day,,
-13157964.1224,4052166.7209,3807,6,Chevy Chase Branch Library,Main Room,3301 E Chevy Chase Dr,Glendale,91206,4 Day,,
-13120831.1762,4044713.01,3808,11785,Crowther Teen and Family Center,Foothill and Route 66 Rooms,241 W Dawson Ave,Glendora,91740,4 Day,,
-13143792.8601,4119359.3358,3809,12828,Skytower Park,Meeting Room,43434 Vineyard Dr ,Lancaster,93535,4 Day,,
-13125673.7678,4096548.2256,3810,14331,Foursquare Church-Pearblossom,Sanctuary,34005 123rd St E,Pearblossom,93553,4 Day,,
-13183256.3712,4023367.0955,3811,14581,Westchester Enriched Sciences Magnets,Multi-Purpose Room,7400 W Manchester Ave,Los Angeles,90045,4 Day,,
-13167685.2428,4020673.298,3812,12880,Community Church of Los Angeles,Fellowship Hall,10611 S Hoover St,Los Angeles,90044,4 Day,,
-13190849.9078,4051040.6892,3813,14111,Sepulveda Garden Center,Meeting Room,16633 Magnolia Blvd,Encino,91436,4 Day,,
-13139815.9432,4021077.4715,3814,6769,Adventure Park,Gymnasium,10130 Gunn Ave,Whittier,90605,11 Day,,
-13149586.3981,4123801.1441,3815,11063,High Desert Regional Health Center,Conference Rooms 11A-11C,335 E Avenue I,Lancaster,93535,4 Day,,
-13164094.6234,4013513.3992,3816,4490,Burrell-MacDonald Park,Multi-Purpose Room,2516 W Alondra Blvd,Compton,90220,4 Day,,
-13115484.3354,4028218.3947,3817,11750,Chaparral Middle School,Multi-Purpose Room,1405 Spruce Tree Dr,Diamond Bar,91765,4 Day,,
-13178678.187,4049329.2748,3818,5994,Walter Reed Middle School,Auditorium Foyer,4525 Irvine Ave,North Hollywood,91602,4 Day,,
-13167127.3133,4025604.9476,3819,11816,South LA Sports Activity Center,Multi-Purpose Room 101,7020 S Figueroa St,Los Angeles,90003,4 Day,,
-13148427.1539,4000253.5559,3820,11768,CSU Long Beach-Walter Pyramid,The Pointe Sunset Rooms A and B,1250 N Bellflower Blvd,Long Beach,90840,4 Day,,
-13153033.5564,4044163.2703,3821,257,South Pasadena Public Library,Community Room,1115 El Centro St,South Pasadena,91030,4 Day,,
-13199475.5531,4081721.1047,3822,13894,Stevenson Ranch Library,Meeting Room,25950 The Old Rd,Stevenson Ranch,91381,4 Day,,
-13153354.1918,3998645.728,3823,6406,St Matthew Catholic Church,Hall,672 Temple Ave,Long Beach,90814,4 Day,,
-13171105.9696,4024343.9105,3824,4710,True Friendship Missionary Baptist Church,Fellowship Hall,7901 S Van Ness Ave,Inglewood,90305,4 Day,,
-13169612.4652,4040406.1837,3825,567,Lemon Grove Recreation Center,Auditorium,4959 Lemon Grove Ave,Los Angeles,90029,4 Day,,
-13195633.4953,4090940.9635,3826,4592,Grace Baptist Church,Junior High Room,22833 Copper Hill Dr,Santa Clarita,91350,4 Day,,
-13176572.5678,4048409.1438,3827,4544,North Weddington Recreation Center,Gymnasium,10844 Acama St,North Hollywood,91602,4 Day,,
-13127859.2226,4033873.0304,3828,14237,Valinda School of Academics,Multi-Purpose Room-Cafeteria,1030 Indian Summer Ave,La Puente,91744,4 Day,,
-13148357.9741,4035868.4589,3829,6159,Garvey Ranch Park,Community Room,781 S Orange Ave,Monterey Park,91755,4 Day,,
-13165029.3238,4049625.2166,3830,14177,Glendale Express Hotel,Grand Ballroom,450 W Pioneer Dr,Glendale,91203,4 Day,,
-13131359.3697,4027824.046,3831,14407,Mesa Robles School,Multi-Purpose Room,16060 Mesa Robles Dr,Hacienda Heights,91745,4 Day,,
-13148653.6989,4044590.8079,3832,13701,Valentine Elementary School,Little Theater,1650 Huntington Dr,San Marino,91108,4 Day,,
-13123632.7322,4037518.0489,3833,5340,Cortez Park Community and Senior Center,North Wing,2501 E Cortez St,West Covina,91791,4 Day,,
-13111789.4869,4033583.2329,3834,5036,Ranch Hills Elementary School,Cafeteria,2 Trabuco Pl,Pomona,91766,4 Day,,
-13156961.0485,4025937.9642,3835,11791,El Hussein Community Center,Youth Center,4313 Gage Ave,Bell,90201,11 Day,,
-13185968.8912,4058133.7717,3836,10821,Goodwill Southern California,Community Room,14565 Lanark St,Panorama City,91402,4 Day,,
-13187326.2059,4028084.3958,3837,13316,Oakwood Recreation Center,Annex Room,767 California Ave,Venice,90291,11 Day,,
-13175436.3421,4014478.0715,3838,11826,Jane Addams Middle School,Gymnasium,4535 W 153rd Pl ,Lawndale,90260,4 Day,,
-13179630.582,4059861.6626,3839,9445,Fernangeles Elementary School,Auditorium,12001 Art St,Sun Valley,91352,4 Day,,
-13145644.6093,4027738.7274,3840,140,Pico Rivera Library,Meeting Room,9001 Mines Ave,Pico Rivera,90660,11 Day,,
-13136869.3843,4016065.4452,3841,11713,La Mirada Activity Center,Upstairs Meeting Room,13810 La Mirada Blvd,La Mirada,90638,11 Day,,
-13176812.7428,4026239.5403,3842,5357,La Tijera K-8 Academy of Excellence,Gymnasium,1415 N La Tijera Blvd,Inglewood,90302,4 Day,,
-13199245.3928,4058311.8189,3843,1909,Winnetka Avenue Elementary School,Auditorium,8240 Winnetka Ave,Winnetka,91306,4 Day,,
-13141619.6398,4012344.534,3844,14649,Whitney High School,Gymnasium,16800 Shoemaker Ave,Cerritos,90703,4 Day,,
-13178909.4559,4057532.6383,3845,13784,LA Family Housing,Winn Community Room,7843 Lankershim Blvd,North Hollywood,91605,11 Day,,
-13147557.8651,4029771.1945,3846,12815,Montebello Foursquare Church,Fellowship Hall,220 S 6th St   ,Montebello,90640,4 Day,,
-13194440.9675,4052051.549,3847,14468,St Paul's United Methodist Church,Cappleman Hall,5619 Lindley Ave,Tarzana,91356,4 Day,,
-13177222.3018,4016686.2228,3848,11484,Hollyglen Elementary School,Multi-Purpose Room,5309 W 135th St ,Hawthorne,90250,4 Day,,
-13149096.6495,4031624.403,3849,467,Montebello-Commerce YMCA,Multi-Purpose Room,2000 W Beverly Blvd,Montebello,90640,11 Day,,
-13146545.0726,4050318.0081,3850,3829,Victory Park Recreation Center,Gymnasium,2575 Paloma St,Pasadena,91107,4 Day,,
-13137585.8401,4048478.4569,3851,2948,Monrovia High School,Room 210,845 W Colorado Blvd ,Monrovia,91016,4 Day,,
-13150523.9691,4009953.5764,3852,3084,Mayfair Park,Activity Room,5720 Clark Ave,Lakewood,90712,11 Day,,
-13118668.307,4035083.2669,3853,11766,Mt San Antonio College,Building 6-160,1100 N Grand Ave,Walnut,91789,4 Day,,
-13187572.3729,4029630.1916,3854,10570,Marine Park,Auditorium,1406 Marine St,Santa Monica,90405,4 Day,,
-13166019.5374,4036201.925,3855,2802,Esperanza Elementary School,Multi-Purpose Room,680 Little St,Los Angeles,90017,4 Day,,
-13138927.6166,4105891.387,3856,13094,Los Angeles County Fire Station 93,Apparatus Bay,5624 E Avenue R,Palmdale,93552,4 Day,,
-13166108.22,4035313.03,3857,14483,10th Street Elementary School,Auditorium,1000 Grattan St,Los Angeles,90015,4 Day,,
-13176191.9041,4066108.6102,3858,6990,Brainard Avenue Elementary School,Auditorium,11407 Brainard Ave,Lake View Terrace,91342,4 Day,,
-13132305.5794,4035789.4473,3859,12366,Bassett Adult School,Auditorium,943 Sunkist Ave,La Puente,91746,4 Day,,
-13156370.779,4009819.5704,3860,2548,United With Hope,Social Hall,5600 Linden Ave,Long Beach,90805,11 Day,,
-13162736.0082,4024574.8679,3861,2332,Franklin D Roosevelt Park,Gymnasium,7600 Graham Ave,Los Angeles,90001,11 Day,,
-13164961.0034,4003691.3601,3862,12817,Scottsdale Townhouses,Grand Hall,23400 Avalon Blvd,Carson,90745,4 Day,,
-13156442.4844,4044107.476,3863,9588,Arroyo Seco Library,Meeting Room,6145 N Figueroa St,Los Angeles,90042,11 Day,,
-13202897.679,4040910.9312,3864,150,Topanga Library,Meeting Room,122 N Topanga Canyon Blvd,Topanga,90290,4 Day,,
-13174819.8423,4041210.8955,3865,9057,Plummer Park Community Center,Fiesta Hall,7377 Santa Monica Blvd,West Hollywood,90046,11 Day,,
-13160465.5016,4000953.9096,3866,9373,Century Villages at Cabrillo,Social Hall,2001 River Ave,Long Beach,90810,4 Day,,
-13144989.8291,4021426.9659,3867,4629,Town Center Hall,Social Hall,11740 Telegraph Rd,Santa Fe Springs,90670,4 Day,,
-13170070.7863,4030676.6269,3868,3602,MLK Jr Therapeutic Recreation Center,Community Room,3916 S Western Ave,Los Angeles,90062,4 Day,,
-13174547.2293,3999698.9539,3869,6389,South Coast Botanic Garden,Frances Young Hall,26300 Crenshaw Blvd,Palos Verdes Estates,90274,11 Day,,
-13160663.4989,4024394.2815,3870,6803,Walnut Park Elementary School,Multi-Purpose Room,2642 Olive St ,Walnut Park,90255,4 Day,,
-13177851.1881,3997479.8267,3871,14445,Ridgecrest Intermediate School,Auditorium,28915 Northbay Rd,Rancho Palos Verdes,90275,4 Day,,
-13158846.5549,4016547.9016,3872,14223,Shiekh Compton Community Center,Community Center,1900 N Long Beach Blvd,Compton,90221,4 Day,,
-13152769.9031,4032625.4747,3873,12765,4th Street Elementary School,Auditorium,420 Amalia Ave,Los Angeles,90022,4 Day,,
-13138354.7633,4036907.8224,3874,14412,Mountain View Family Center,Central Room and Room 1,2740 Mountain View Rd,El Monte,91732,4 Day,,
-13188027.7945,4059857.472,3875,5896,Langdon Avenue Elementary School,Auditorium,8817 Langdon Ave,North Hills,91343,4 Day,,
-13151850.6351,4037959.1456,3876,12865,Granada Park,Activity Room,2000 W Hellman Ave,Alhambra,91803,4 Day,,
-13172901.6911,4031946.6009,3877,11728,West Angeles Church of God in Christ,South Lobby,3600 Crenshaw Blvd,Los Angeles,90016,4 Day,,
-13185222.0078,4025766.1717,3878,13359,Burton Chace Park,Community Building,13650 Mindanao Way,Marina Del Rey,90292,4 Day,,
-13158113.3355,4021304.5851,3879,13264,Leland R Weaver Library,Meeting Room,4035 Tweedy Blvd,South Gate,90280,4 Day,,
-13165688.2785,4009588.6039,3880,10465,Victoria Community Regional Park,Multi-Purpose Room,419 Martin Luther King Jr St,Carson,90746,11 Day,,
-13146859.2903,4009642.8006,3881,11754,Liberty II Facility,Multi-Purpose Room,19033 Studebaker Rd,Cerritos,90703,4 Day,,
-13168532.8985,3992178.4354,3882,13110,Italian American Club,Main Room,1903 S Cabrillo Ave,San Pedro,90731,11 Day,,
-13153097.0655,4029176.8823,3883,13838,Brenda Villa Aquatic Center,Meeting Room,5600 Harbor St,Commerce,90040,11 Day,,
-13175627.7559,3996412.1674,3884,14436,Rancho Del Mar High School,Multi-Purpose Room,38 Crest Rd W,Rolling Hills,90274,4 Day,,
-13167127.315,4041534.2861,3885,2150,Silverlake Independent Jewish Comm Ctr,Gymnasium,1110 Bates Ave,Los Angeles,90029,4 Day,,
-13173212.1167,4010723.3929,3886,2655,North High School,East Cafeteria,3620 W 182nd St,Torrance,90504,4 Day,,
-13192978.3782,4066293.855,3887,7046,Rinaldi Adult Center,Auditorium,17450 Rinaldi St,Granada Hills,91344,4 Day,,
-13148555.0923,4119617.6373,3888,14214,New Vista Middle School,Gymnasium,753 E Avenue K 2,Lancaster,93535,4 Day,,
-13171120.858,4003997.0625,3889,9915,J H Hull Middle School,Gymnasium,2080 W 231st St,Torrance,90501,4 Day,,
-13177894.862,4009088.993,3890,10889,Beach Cities Health Dist Admin Office,Redondo and Beach Cities Lower Level,514 N Prospect Ave,Redondo Beach,90277,4 Day,,
-13191750.7757,4089751.8827,3891,13304,Bouquet Canyon Education Center,Multi-Purpose Room,28110 Wellston Dr,Saugus,91350,4 Day,,
-13163240.0774,4028044.9389,3892,13315,Slauson Rec and Senior Citizen Center,Senior Club Room,5306 Compton Ave,Los Angeles,90011,11 Day,,
-13201323.3323,4060195.2332,3893,14318,Elks Lodge 2190,Main Hall,20925 Osborne St ,Canoga Park,91304,4 Day,,
-13166860.7849,4034734.0213,3894,3726,Angelica Lutheran Church,Auditorium,1345 S Burlington Ave,Los Angeles,90006,4 Day,,
-13154443.227,4027547.7842,3895,13213,R N Slawson Southeast Occupational Ctr,Multi-Purpose Room,5500 Rickenbacker Rd,Bell,90201,4 Day,,
-13140469.094,4030846.4233,3896,5969,Mill Elementary School,Multi-Purpose Room Gate M,4030 Workman Mill Rd,Whittier,90601,4 Day,,
-13168108.3428,4038754.0725,3897,7604,Virgil Middle School,Auditorium,152 N Vermont Ave ,Los Angeles,90004,4 Day,,
-13212849.2057,4034073.7864,3898,9626,Malibu City Hall,Multi-Purpose Room,23825 Stuart Ranch Rd,Malibu,90265,11 Day,,
-13142580.6522,4026049.8035,3899,2426,Sorensen Park,Multi-Purpose Room,11419 Rose Hedge Dr,Whittier,90606,11 Day,,
-13182448.4382,4052539.3608,3900,14663,Los Angeles Valley College,Cafeteria,5800 Fulton Ave,Van Nuys,91401,11 Day,,
-13169325.218,4015048.68,3901,10893,Vincent Bell Memorial Park,Community Room,14708 Halldale Ave,Gardena,90247,4 Day,,
-13108199.9844,4037079.4276,3902,13003,Centro Cristiano De La Fe,Dining Room,423 N Main St ,Pomona,91768,11 Day,,
-13151587.3441,4049574.5809,3903,240,Villa Park Community Center,Auditorium,363 E Villa St,Pasadena,91101,4 Day,,
-13164413.311,4059056.2819,3904,12471,Crescenta Valley Park,Recreation Room,3901 Dunsmore Ave,Glendale,91214,4 Day,,
-13150606.9636,3997023.9772,3905,12532,Bay Shore Comm Congregational Church,Gymnasium,5100 E The Toledo,Long Beach,90803,4 Day,,
-13152059.7759,4016433.5674,3906,14801,Golden Park,Auditorium,8840 Golden Ave,Downey,90242,4 Day,,
-13161634.9256,4036368.5336,3907,13232,Metro Headquarters,Plaza Level Lobby,1 Gateway Plz,Los Angeles,90012,4 Day,,
-13151276.7583,4048356.2718,3908,3897,First United Methodist Church-Pasadena,Great Hall,500 E Colorado Blvd,Pasadena,91101,4 Day,,
-13149040.2565,4027812.9824,3909,12420,Chet Holifield Park,Community Room,1060 S Greenwood Ave,Montebello,90640,4 Day,,
-13157687.5156,4095453.8304,3910,85,Acton Agua Dulce Library,Meeting Room,33792 Crown Valley Rd ,Acton,93510,4 Day,,
-13171399.6302,4054788.8259,3911,9681,McCambridge Recreation Center,Room 4,1515 N Glenoaks Blvd,Burbank,91504,4 Day,,
-13117689.6316,4047216.1244,3912,6853,Glendora Masonic Temple,Hall and Coffee Room,135 N Valley Center Ave,Glendora,91741,11 Day,,
-13196302.1124,4050997.1482,3913,14503,Wilbur Charter for Enriched Academics,Auditorium,5213 Crebs Ave,Tarzana,91356,4 Day,,
-13190754.3473,4036171.3663,3914,2400,Paul Revere Middle School,Library,1450 Allenford Ave,Los Angeles,90049,4 Day,,
-13173393.4424,4051711.2201,3915,2971,Magnolia Park United Methodist Church,Fellowship Hall,2828 W Magnolia Blvd,Burbank,91505,11 Day,,
-13158563.5927,4041902.5126,3916,603,Ramona Hall Community Center,Banquet Hall,4580 N Figueroa St,Los Angeles,90065,4 Day,,
-13113792.5641,4043205.3311,3917,326,San Dimas City Hall,Community Building,245 E Bonita Ave,San Dimas,91773,11 Day,,
-13133934.956,4036491.6633,3918,10861,Torch Middle School,Watanabe Center,751 Vineland Ave,City of Industry,91746,4 Day,,
-13221213.1616,4048389.3718,3919,14513,Courtyard Thousand Oaks Agoura Hills,Sierra Ballroom,29505 Agoura Rd,Agoura Hills,91301,4 Day,,
-13183302.2625,4050880.7811,3920,2402,Louis Armstrong Middle School,Gymnasium,5041 Sunnyslope Ave,Sherman Oaks,91423,4 Day,,
-13162482.115,4021830.3298,3921,11790,Tree of Life Baptist Church,Fellowship Hall,9702 Holmes Ave ,Los Angeles,90002,11 Day,,
-13170588.4626,4035947.4863,3922,6142,Trinity Central Lutheran Church,Parish Hall,987 S Gramercy Pl,Los Angeles,90019,11 Day,,
-13153433.0881,4055106.2047,3923,12860,Sacred Heart Catholic Church,Parish Hall,2889 Lincoln Ave,Altadena,91001,4 Day,,
-13175070.8193,4033096.7748,3924,2767,Cienega Elementary School,Auditorium,2611 S Orange Dr,Los Angeles,90016,4 Day,,
-13182183.5584,4033245.9184,3925,532,Palms Recreation Center,Auditorium 1 and 2,2950 Overland Ave,Los Angeles,90064,4 Day,,
-13222102.1714,4048225.9233,3926,12693,Agoura Hills Civic Center,Community Room,30001 Ladyface Ct,Agoura Hills,91301,4 Day,,
-13122912.3395,4026378.7937,3927,12301,Rowland High School,Hide Out,2000 S Otterbein Ave ,Rowland Heights,91748,4 Day,,
-13111740.6196,4047188.4433,3928,10687,San Dimas Canyon Golf Course,Canyon View Room,2100 Terrebonne Ave ,San Dimas,91773,4 Day,,
-13172443.7076,4031626.6091,3929,14446,Rios,Lunch Room,3101 W Exposition Pl,Los Angeles,90018,4 Day,,
-13151565.8939,4121628.9197,3930,11792,Park View Educational Complex,Gymnasium,44327 Fig Ave ,Lancaster,93534,4 Day,,
-13155408.054,4025098.8067,3931,3114,Iglesia De Dios,Community Room,6830 Wilcox Ave ,Bell,90201,4 Day,,
-13164344.4331,4037815.8288,3932,160,Echo Park Branch Library,203 Multi-Purpose Room,1410 W Temple St,Los Angeles,90026,4 Day,,
-13181568.4248,3998876.4237,3933,2232,Palos Verdes Intermediate School,Multi-Purpose Room,2161 Via Olivera,Palos Verdes Estates,90274,4 Day,,
-13206466.9344,4057770.867,3934,14378,Justice Street Academy Charter School,Auditorium,23350 Justice St ,West Hills,91304,4 Day,,
-13181360.9488,4027918.6048,3935,593,Mar Vista Gardens Recreation Center,Community Room,4909 Marionwood Dr,Culver City,90230,4 Day,,
-13130299.6385,4032332.7114,3936,10639,La Puente Community Center,Multi-Purpose Rooms 22-24,501 Glendora Ave,La Puente,91744,11 Day,,
-13194146.7411,4034717.8319,3937,9542,Palisades Branch Library,Meeting Room,861 Alma Real Dr,Pacific Palisades,90272,4 Day,,
-13178187.777,4066502.1855,3938,14629,PUC Lakeview Charter Academy,Multi-Purpose Room,11465 Kagel Canyon St,Lake View Terrace,91342,4 Day,,
-13182988.0028,4062270.7836,3939,12943,Pacoima Middle School,Social Hall,9919 Laurel Canyon Blvd,Pacoima,91331,4 Day,,
-13172981.3168,4016226.5404,3940,14149,Bud Carson Middle School,Gymnasium,13838 Yukon Ave,Hawthorne,90250,4 Day,,
-13150849.8832,4006189.2891,3941,10547,Long Beach City College,Multi-Purpose Room T1200,4901 E Carson St,Long Beach,90808,11 Day,,
-13190115.2853,4039117.5513,3942,12325,Crestwood Hills Recreation Center,Clubroom,1000 Hanley Ave,Los Angeles,90049,11 Day,,
-13157374.3856,4008986.9415,3943,4501,Grace Samoan Church of the Nazarene,Fellowship Hall,24 E 53rd St,Long Beach,90805,4 Day,,
-13128213.1658,4042782.2186,3944,14160,Dan Diaz Recreation Center,Gymnasium,16053 Calle De Paseo St,Irwindale,91706,4 Day,,
-13155687.9083,4034461.2173,3945,12921,Our Lady of Guadalupe Church,Cafeteria,4018 Hammel St,Los Angeles,90063,11 Day,,
-13185847.6424,4070139.6925,3946,188,Sylmar Branch Library,Meeting Room,14561 Polk St,Sylmar,91342,11 Day,,
-13145683.8628,4029997.4052,3947,5829,Montebello Gardens Elementary School,Cafetorium,4700 Pine St,Pico Rivera,90660,4 Day,,
-13155404.1599,4011431.1182,3948,2266,New Philadelphia AME Church,Butler Hall,6380 Orange Ave,Long Beach,90805,4 Day,,
-13180007.1852,4024297.8245,3949,9127,Westchester Family YMCA  Annex,Meeting Room Hall,8020 Alverstone Ave,Los Angeles,90045,11 Day,,
-13142663.5693,4026809.4959,3950,6553,Salem Lutheran Church,Robinson Hall,6442 Glengarry Ave,Whittier,90606,4 Day,,
-13187589.2326,4061393.0015,3951,8936,Sepulveda Middle School,Evans Hall,15330 Plummer St,North Hills,91343,4 Day,,
-13168598.1517,4015795.5799,3952,2230,Church Of The Holy Communion,Parish Hall,1160 W 141st St,Gardena,90247,4 Day,,
-13203119.8094,4056540.1101,3953,14278,Canoga Park Elementary School,Auditorium,7438 Topanga Canyon Blvd,Canoga Park,91303,4 Day,,
-13164950.8882,4037050.7296,3954,4424,Belmont High School,Auditorium,1575 W 2nd St,Los Angeles,90026,4 Day,,
-13184101.2189,4032810.9008,3955,1855,Daniel Webster Middle School,Multi-Purpose Room,11330 Graham Pl,Los Angeles,90064,4 Day,,
-13199943.7185,4055238.153,3956,8603,Fullbright Avenue Elementary School,Auditorium,6940 Fullbright Ave,Winnetka,91306,4 Day,,
-13180271.4634,4038625.128,3957,13573,Beverly Hills City Hall,Municipal Gallery 2nd Floor,455 N Rexford Dr,Beverly Hills,90210,11 Day,,
-13146765.4409,4041660.4504,3958,13271,San Gabriel Library,Meeting Room 2nd Floor,500 S Del Mar Ave,San Gabriel,91776,11 Day,,
-13106977.1686,4040989.3956,3959,4378,Palomares Park,Senior Center,499 E Arrow Hwy,Pomona,91767,4 Day,,
-13179651.1219,4047818.0763,3960,3776,Bridges Academy,Auditorium,3921 Laurel Canyon Blvd,Studio City,91604,4 Day,,
-13169098.488,4029670.7848,3961,4118,St Cecilia Catholic Church,Parish Hall,4230 S Normandie Ave ,Los Angeles,90037,4 Day,,
-13150267.5364,4007519.3012,3962,8251,Pan American Park,Gymnasium,5157 E Centralia St,Long Beach,90808,4 Day,,
-13143420.5043,4015755.3432,3963,2821,Norwalk Masonic Center,Dining Room,12345 Rosecrans Ave,Norwalk,90650,4 Day,,
-13171396.7728,4042982.9326,3964,9710,Cheremoya Avenue Elementary School,Auditorium,6017 Franklin Ave,Los Angeles,90028,4 Day,,
-13159339.1782,4045774.8325,3965,11756,Occidental College,Herrick Memorial Chapel-Interfaith Ctr,1600 Campus Rd,Los Angeles,90041,4 Day,,
-13146249.8391,4013471.532,3966,11767,Cerritos College,Conference Center,11110 Alondra Blvd,Norwalk,90650,4 Day,,
-13151276.8108,4122999.6894,3967,118,Lancaster Library,Anna Davis Meeting Room,601 W Lancaster Blvd,Lancaster,93534,11 Day,,
-13149953.7592,4037658.1745,3968,13168,Langley Senior Center,Friendship Room,400 W Emerson Ave,Monterey Park,91754,4 Day,,
-13185687.1793,4053793.9989,3969,14386,Latin Paradise Banquet Hall,Banquet Hall,6357 Van Nuys Blvd,Van Nuys,91401,11 Day,,
-13157922.4564,4116670.6366,3970,5297,Antelope Valley Church,AV Reach,3830 W Avenue L8,Lancaster,93536,4 Day,,
-13173740.0745,4017663.4144,3971,14805,Hawthorne Memorial Center,Venus Room,3901 W El Segundo Blvd,Hawthorne,90250,11 Day,,
-13171966.1259,4005593.2151,3972,14855,Dee Hardison Sports Center,Multi-Purpose Room,2400 Jefferson St,Torrance,90501,11 Day,,
-13157615.2783,4022485.0817,3973,14914,South Gate Middle School,Auditorium,4100 Firestone Blvd ,South Gate,90280,4 Day,,
-13165132.3989,4040086.8276,3974,14896,Mayberry Street Elementary School,Multi-Purpose Room,2414 Mayberry St,Los Angeles,90026,4 Day,,
-13159933.1922,4026246.4455,3975,14883,Gage Middle School,Multi-Purpose Room,2880 E Gage Ave,Huntington Park,90255,4 Day,,
-13168762.0059,4010945.2576,3976,14884,Gardena High School,Social Hall,1301 W 182nd St,Gardena,90248,4 Day,,
-13205726.9333,4056087.9782,3977,14924,UCLA West Valley Medical Center,Cafeteria,7300 Medical Center Dr,West Hills,91307,4 Day,,
-13180234.6501,4057658.8738,3978,14919,Strathern Elementary School,Auditorium,7939 Saint Clair Ave,North Hollywood,91605,4 Day,,
-13173195.1577,4040540.5769,3979,14868,Bancroft Middle School,Auditorium,929 N Las Palmas Ave,Los Angeles,90038,4 Day,,
-13154330.642,3997425.0079,3980,14870,Bixby Park,Social Hall 1,130 Cherry Ave ,Long Beach,90802,4 Day,,
-13122676.5864,4046880.8318,3981,14932,Citrus College,Hayden Hall Room 101,1000 W Foothill Blvd,Glendora,91741,4 Day,,
-13167612.0684,4040809.3468,3982,14935,The New Presbyterian Church,Fellowship Hall,970 N Virgil Ave ,Los Angeles,90029,11 Day,,
-13167239.1837,4037135.0885,3983,14938,Lafayette Multi-Purpose Comm Center,Club Room A,625 S La Fayette Park Pl,Los Angeles,90057,4 Day,,
-13195305.2112,4057338.7526,3984,14957,Reseda Church of Christ,Fellowship Hall,7806 Reseda Blvd,Reseda,91335,11 Day,,
-13157829.87,4044370.0961,3985,14962,Franklin High School,Small Gymnasium,820 N Avenue 54,Los Angeles,90042,4 Day,,
-13191337.6519,4084007.8308,3986,14977,The Centre,Sycamore Room,20880 Centre Pointe Pkwy,Santa Clarita,91350,11 Day,,
-13194059.6044,4058969.1477,3987,14999,Northridge Middle School,Multi-Purpose Room,17960 Chase St,Northridge,91325,4 Day,,
-13118641.8924,4043785.5011,3988,15000,Sunflower Campus,Multi-Purpose Room,1505 Sunflower Ave,Glendora,91740,4 Day,,
-13213619.2586,4047145.5851,3989,15009,Las Virgenes Municipal Water District,Pure Water Demonstration Facility,4232 Las Virgenes Rd,Calabasas,91302,4 Day,,
-13131268.0205,4041747.2393,3990,15011,Baldwin Park Performing Arts Center,Lobby,4640 Maine Ave,Baldwin Park,91706,4 Day,,
-13133663.2476,4038880.6046,3991,15015,Early Childhood Education Center,Building N,13307 Francisquito Ave,Baldwin Park,91706,4 Day,,
-13190229.0412,4030315.6516,3992,15021,Civic Center Parking Structure,Santa Monica Inst-SMI Train Rm,330 Olympic Dr 2nd Floor Plaza Level,Santa Monica,90401,11 Day,,
-13204135.9662,4094242.0051,3993,15023,Castaic Regional Sports Complex,Community Room,31230 Castaic Rd,Castaic,91384,11 Day,,
-13168377.6098,4032382.7874,3994,15034,John Mack Elementary School,Multi-Purpose Room,3020 S Catalina St,Los Angeles,90007,4 Day,,
-13163320.2678,4023575.3017,3995,15035,Charles Drew Middle School,Gymnasium,8511 Compton Ave,Los Angeles,90001,4 Day,,
-13162729.6962,4033767.6882,3996,15037,Inner-City Arts,Rosenthal Theater,720 Kohler St,Los Angeles,90021,4 Day,,
-13147783.1748,4037044.5101,3997,15038,Union Church LA,Kids Building,201 S New Ave,Monterey Park,91755,11 Day,,
-13167130.6023,3999654.0615,3998,17005,Los Angeles Harbor College,Dance Studio Rooms 140 and 141,1111 Figueroa Pl,Wilmington,90744,4 Day,,
-13169036.3515,3994061.4945,3999,17051,San Pedro and Peninsula YMCA,Gymnasium 2nd Floor,301 S Bandini St,San Pedro,90731,4 Day,,
-13157925.2452,4019106.3411,4000,17100,Lynwood Community Transit Center,Gymnasium,11301 Bullis Rd   ,Lynwood,90262,4 Day,,
-13149356.5068,4023899.4228,4001,17173,New Season LA,Rooms 2 and 3,9001 Paramount Blvd,Downey,90240,4 Day,,
-13184883.2107,4085167.6295,4002,17511,Canyon Country Park,East and West Rooms,17615 Soledad Canyon Rd,Santa Clarita,91387,11 Day,,
-13135982.5691,4020382.9442,4003,17113,Parnell Park Comm and Senior Center,Walnut Room 1,15390 Lambert Rd,Whittier,90604,4 Day,,
-13176360.7258,4003691.9666,4004,17147,South High School,Pavilion Gymnasium,4801 Pacific Coast Hwy ,Torrance,90505,4 Day,,
-13170641.1404,4041618.3078,4005,17151,Bernstein High School,Library,1309 N Wilton Pl,Los Angeles,90028,4 Day,,
-13162969.9792,4034758.0574,4006,14985,James Wood Community Center,Community Room,400 E 5th St,Los Angeles,90013,4 Day,,
-13162722.1742,4058885.5944,4007,15016,Crescenta Valley High School,Auditorium Lobby,2900 Community Ave,La Crescenta,91214,4 Day,,
-13165434.3157,4024724.9694,4008,15018,Fremont High School,Small Gymnasium,7676 S San Pedro St ,Los Angeles,90003,4 Day,,
-13136065.1149,4039807.6469,4009,17140,Durfee Elementary-Middle School,Staff Training Room,12233 Star St ,El Monte,91732,4 Day,,
-13158738.8021,4032463.1712,4010,17743,Ramon Garcia Recreation Center,Preschool Building,1016 S Fresno St ,Los Angeles,90023,4 Day,,
-13173922.3536,4015870.9597,4011,18184,American Legion Post 314,Main Hall,14124 Prairie Ave,Hawthorne,90250,4 Day,,
-13167204.8166,4033182.8095,4012,18208,Hoover Recreation Center,Auditorium,1010 W 25th St ,Los Angeles,90007,4 Day,,
-13194990.2439,4035392.3606,4013,18636,Pacific Palisades Presbyterian Church,Janes Hall,15821 W Sunset Blvd,Pacific Palisades,90272,4 Day,,
-13132408.5136,4047524.3233,4014,17101,Duarte Community Center,Community Center,1600 Huntington Dr ,Duarte,91010,4 Day,,
-13189123.6471,4029048.8258,4015,17109,Washington Preschool,Multi-Purpose Room,2802 4th St,Santa Monica,90405,4 Day,,
-13177445.1652,4062297.2326,4016,17742,Stonehurst Recreation Center,Preschool Building,9901 Dronfield Ave,Sun Valley,91352,11 Day,,
-13186661.2271,4059692.5331,4017,17862,Mid Valley Senior Center,Main Room,8801 Kester Ave,Panorama City,91402,11 Day,,
-13155990.9418,4110109.2239,4018,18653,Marie Kerr Park,Community Building,39700 30th St W,Palmdale,93551,11 Day,,
-13152225.4189,4034303.3408,4019,18897,East Los Angeles College,F5-201 Multi-Purpose Room,1301 Avenida Cesar Chavez,Monterey Park,91754,4 Day,,
-13160166.0967,4032476.091,4020,19464,KIPP Promesa Prep,Multi-Purpose Room,1241 S Soto St,Los Angeles,90023,4 Day,,
-13155111.7665,4000757.3125,4021,19595,Long Beach City College-Pacific Coast,Room GG238,1305 E Pacific Coast Hwy,Long Beach,90806,11 Day,,
-13157134.3644,4003107.3,4022,19742,Veterans Park,Social Hall,101 E 28th St,Long Beach,90806,11 Day,,
-13194312.298,4061272.7257,4023,19922,Cal State University Northridge,Redwood Hall 180,18111 Nordhoff St,Northridge,91330,11 Day,,
-13227860.9074,4032076.6911,4024,19954,Malibu High School,Parent Center A-006,30215 Morning View Dr,Malibu,90265,4 Day,,
-13186340.7824,4055804.8147,4025,19488,Van Nuys Masonic Center,Ballroom,14750 Sherman Way,Van Nuys,91405,4 Day,,
-13161523.1877,4044664.26,4026,19918,Glassell Senior Citizen Center,Activity Room,3750 Verdugo Rd,Los Angeles,90065,11 Day,,
-13205464.5994,4088195.3432,4027,17089,Castaic Union School District,Boardroom,28131 Livingston Ave,Valencia,91355,4 Day,,
-13189068.2927,4045461.9093,4028,18775,Skirball Cultural Center,Herscher Hall,2701 N Sepulveda Blvd,Los Angeles,90049,4 Day,,
-13172226.3913,4026161.3566,4029,19837,YES Academy,Auditorium,3140 Hyde Park Blvd,Los Angeles,90043,4 Day,,
-13145179.8224,4041868.9363,4030,19920,Roosevelt Elementary School,Room 12,401 S Walnut Grove Ave,San Gabriel,91776,4 Day,,
-13170374.7781,4025680.0222,4031,19979,Mann UCLA Community School,Auditorium,7001 S St Andrews Pl,Los Angeles,90047,4 Day,,
-13160465.7778,4015220.7542,4032,17560,Douglas F Dollarhide Community Center,Banquet Hall Room 101,301 N Tamarind Ave,Compton,90220,11 Day,,
-13148469.7929,4106584.7995,4033,19550,Palmdale Courthouse,Operations Room 400,38256 Sierra Hwy ,Palmdale,93550,4 Day,,
-13178026.0474,4036020.0659,4034,19702,Congregation Ohel Moshe,Pardess Hall,8646 W Pico Blvd,Los Angeles,90035,4 Day,,
-13178825.1285,4050551.8926,4035,20187,Faith Presbyterian Church,Caldwell Hall,5000 Colfax Ave ,Valley Village,91601,4 Day,,
-13173072.2671,4042876.8647,4036,20180,Las Palmas Senior Enrichment Center,Auditorium and Lobby,1820 N Las Palmas Ave,Los Angeles,90028,11 Day,,
-13164667.8172,4038185.3333,4037,20220,Echo Park Recreation Center,Classrooms 3 and 4,1632 Bellevue Ave,Los Angeles,90026,11 Day,,
-13147487.3116,3999270.6122,4038,20238,Sato Academy,Meeting Room 104,1100 Iroquois Ave ,Long Beach,90815,4 Day,,
-13173088.4829,4011706.9322,4039,20237,Herma Tillim Senior Center,Comm Room and Early Childhood Ed Room,3612 Artesia Blvd,Torrance,90504,4 Day,,
-13183201.9294,4085234.5168,4040,20474,Sulphur Springs Community School,G1 and G2,16628 Lost Canyon Rd,Canyon Country,91387,4 Day,,
-13168464.0593,4035428.05,4041,20571,Berendo Middle School,Auditorium,1157 S Berendo St,Los Angeles,90006,4 Day,,
-13169591.0086,4035897.0298,4042,20572,Hobart Boulevard Elementary School,Auditorium,980 S Hobart Blvd,Los Angeles,90006,4 Day,,
-13139566.7304,4025146.3577,4043,20698,Whittier Community Center,Rooms 1 and 2,7630 Washington Ave,Whittier,90602,4 Day,,
-13184643.3959,4055723.6731,4044,18106,Hazeltine Avenue Elementary School,Auditorium,7150 Hazeltine Ave,Van Nuys,91405,4 Day,,
-13168713.3148,4036772.8616,4045,19087,Robert F Kennedy Community Schools,Middle School Gymnasium,701 S Catalina St,Los Angeles,90005,4 Day,,
-13157335.9603,3997832.2073,4046,17645,Billie Jean King Main Library,Meeting Room A,200 W Broadway,Long Beach,90802,4 Day,,
-13134250.3695,4048466.4085,4047,20705,Santa Anita Family YMCA,Gymnasium,501 S Mountain Ave,Monrovia,91016,4 Day,,
-13128717.3011,4032725.4477,4048,20807,Workman High School,DEN,16303 Temple Ave,City of Industry,91744,4 Day,,
-13191577.1427,4063729.6339,4049,20892,Valley Korean United Methodist Church,Ed Bldg Lobby and Rooms 100 and 101,10408 Balboa Blvd,Granada Hills,91344,11 Day,,
-13182465.1034,4071289.6375,4050,20910,Los Angeles Mission College,Campus Center,13356 Eldridge Ave,Sylmar,91342,4 Day,,
-13142537.151,4103845.5451,4051,20921,Palmdale Oasis Park Recreation Center,Meeting Rooms 2 and 3,3850 E Avenue S,Palmdale,93550,11 Day,,
-13147575.5547,4051583.9984,4052,20557,Webster Elementary School,Auditorium,2101 E Washington Blvd,Pasadena,91104,4 Day,,
-13186802.052,4084862.3227,4053,20891,Canyon Country Jo Anne Darcy Library,Community Room,18601 Soledad Canyon Rd,Santa Clarita,91351,4 Day,,
-13141026.4824,4042621.5563,4054,20913,Live Oak Park Community Center,Live Oak 3,10144 Bogue St,Temple City,91780,4 Day,,
-13122052.4427,4048752.2808,4055,19906,St Lucy's Priory High School,North Building,655 W Sierra Madre Ave,Glendora,91741,4 Day,,
-13179746.3626,4031619.224,4056,20935,Culver City City Hall,Patacchia Rooms 1st Floor,9770 Culver Blvd,Culver City,90232,11 Day,,
-13143802.1345,4029800.22,4057,20936,Pico Park Community Center,Auditorium A and B,9528 Beverly Blvd,Pico Rivera,90660,4 Day,,
-13163089.8782,4036416.942,4058,20938,Kenneth Hahn Hall of Administration,2nd Floor Lobby,500 W Temple St,Los Angeles,90012,4 Day,,
-13158636.2135,4011504.9232,4059,20943,Jordan Plus,Building D Multi-Purpose Room,171 W Bort St,Long Beach,90805,4 Day,,
-13195158.6775,4086704.2356,4060,19591,Santa Clarita United Methodist Church,Youth Hall,26640 Bouquet Canyon Rd,Santa Clarita,91350,4 Day,,
-13116285.9219,4041984.237,4061,21010,Bonita Center for the Arts,Lobby,822 W Covina Blvd,San Dimas,91773,4 Day,,
-13153375.7905,4000399.7144,4062,20954,Cambodian-American Utd Methodist Church,Fellowship Hall and Sunday Classroom,1700 Temple Ave,Long Beach,90804,4 Day,,
-13156270.5127,4005204.6596,4063,17068,Dana Neighborhood Library,Community Room,3680 Atlantic Ave,Long Beach,90807,4 Day,,
-13144165.7411,4123243.7554,4064,20941,Eastside Union School District,Training Rooms 105 and 106,44938 30th St E,Lancaster,93535,4 Day,,
-13163991.8343,4035472.0712,4065,20964,Millennium Biltmore Hotel Los Angeles,Heinsbergen Room,506 S Grand Ave ,Los Angeles,90071,4 Day,,
-13195453.7892,4080001.8334,4066,21006,Our Lady of Perpetual Help Pastoral Ctr,Junipero Serra and Our Lady Rooms,23045 Lyons Ave,Santa Clarita,91321,4 Day,,
-13187979.7165,4031078.6328,4067,20987,Santa Monica College,Cayton Center Building Faculty Lounge,1900 Pico Blvd,Santa Monica,90405,4 Day,,
-13178576.8202,4039743.931,4068,20975,West Hollywood Park,La Cienega and San Vicente Rooms,8750 El Tovar Pl,West Hollywood,90069,4 Day,,
-13178855.1887,4029397.0355,4069,20961,West Los Angeles College,Fine Arts Gallery,9000 Overland Ave,Culver City,90230,4 Day,,
-13165815.6032,4032792.372,4070,20971,Los Angeles Trade Technical College,Lib Arts Bldg Multi-Purpose Room F5-101,400 W Washington Blvd,Los Angeles,90015,4 Day,,
-13116508.5888,4114985.7235,4071,21015,Wilsona Elementary School,Rooms S11 and S13,16845 E Avenue M 8,Lake Los Angeles,93535,4 Day,,
-13203995.0076,4052073.9331,4072,21016,Woodland Hills United Methodist Church,Education Building Rooms 1 and 2,5650 Shoup Ave,Woodland Hills,91367,4 Day,,
-13160280.1252,4112517.0643,4073,21024,Boulders at the Ranch One,Clubhouse,40701 Rancho Vista Blvd,Palmdale,93551,4 Day,,
-13174832.7365,4031811.1403,4074,21026,Michelle and Barack Obama Sport Complex,Community Room,5001 Obama Blvd,Los Angeles,90016,4 Day,,
-13151006.2688,4022492.2046,4075,21227,Furman Park,Activity Rooms 1 and 2,10419 Rives Ave,Downey,90241,4 Day,,
-13170496.5165,3995207.3237,4076,17355,Crestwood Street Elementary School,Auditorium,1946 W Crestwood St,Rancho Palos Verdes,90275,4 Day,,
-13171230.0318,4020341.0688,4077,17450,Century Park Elementary School,Auditorium,10935 Spinning Ave ,Inglewood,90303,4 Day,,
-13147559.6128,4022953.909,4078,17611,Unsworth Elementary School,Cafeteria,9001 Lindsey Ave ,Downey,90240,4 Day,,
-13180841.0695,4038309.5671,4079,17616,All Saints Episcopal Church,Lower Sweetland Hall,504 N Camden Dr,Beverly Hills,90210,4 Day,,
-13102355.954,4043851.2644,4080,17790,Granite Creek Community Church,Sanctuary,1580 N Claremont Blvd,Claremont,91711,11 Day,,
-13155366.7145,4024380.5377,4081,17801,Ellen Ochoa Learning Center,Multi-Purpose Room,5027 Live Oak St,Cudahy,90201,4 Day,,
-13170051.404,4021641.0974,4082,17880,Church of the Living God CWFF Temple 44,Fellowship Hall,9800 Western Ave ,Los Angeles,90047,4 Day,,
-13155522.9822,4014046.86,4083,17919,Frank J Zamboni Middle School,Library,15733 Orange Ave,Paramount,90723,4 Day,,
-13183578.2875,4087508.8276,4084,18004,College Of the Canyons-Canyon Country,Student Services Bldg 1st Floor Lobby,17200 Sierra Hwy,Santa Clarita,91351,4 Day,,
-13164848.507,4000319.7572,4085,17982,Harry Bridges Span School,Auditorium,1235 Broad Ave ,Wilmington,90744,4 Day,,
-13105443.2901,4044302.4776,4086,18070,Condit Elementary School,Multi-Purpose Room,1750 N Mountain Ave,Claremont,91711,4 Day,,
-13164330.8337,4015691.2502,4087,18321,Holy Chapel Missionary Baptist Church,Fellowship Hall,1016 E Rosecrans Ave,Rancho Dominguez,90220,4 Day,,
-13159723.2812,4004982.302,4088,18390,Long Beach Sportsman's Club,Hall,3623 Santa Fe Ave,Long Beach,90810,4 Day,,
-13148997.0642,4012288.8353,4089,18554,Las Flores Home Ed Ind Study Academy,Cafeteria,10039 Palm St,Bellflower,90706,4 Day,,
-13134558.8696,4015205.1287,4090,18613,Alternative Education Center,Multi-Purpose Room,14640 Mercado Ave,La Mirada,90638,4 Day,,
-13154801.0493,4034356.4464,4091,18637,Animo Ellen Ochoa Charter Middle School,Multi-Purpose Room,4360 Dozier St,Los Angeles,90022,4 Day,,
-13154544.9465,4017697.2819,4092,18649,Moose Family Center,Lodge Hall,12021 Garfield Ave,South Gate,90280,4 Day,,
-13153613.6091,4024536.1273,4093,18880,Neighborhood Youth Center,Gymnasium,5856 Ludell St,Bell Gardens,90201,4 Day,,
-13166595.4303,4035662.6809,4094,18932,The Live Hotel,Grand Ballroom,1901 W Olympic Blvd,Los Angeles,90006,4 Day,,
-13175777.962,4024630.3924,4095,19111,Rogers Park,Senior Auditorium,400 W Beach Ave ,Inglewood,90302,11 Day,,
-13176602.8932,4059777.7938,4096,19122,Cielo Banquet Hall,Junior Hall,8905 Glenoaks Blvd HIJ,Sun Valley,91352,4 Day,,
-13158781.7303,4023070.1101,4097,19451,Salon South Gate,Hall,3424 Ardmore Ave,South Gate,90280,4 Day,,
-13173841.298,4033151.5027,4098,19476,Southern Missionary Baptist Church,Fellowship Hall,4678 W Adams Blvd ,Los Angeles,90016,4 Day,,
-13166873.0516,4046623.6115,4099,20118,Griffith Park Visitor Center,Auditorium,4730 Crystal Springs Dr,Los Angeles,90027,4 Day,,
-13149056.1674,4011349.3825,4100,20263,Thomas Jefferson Elementary School,Multi-Purpose Room,10027 Rose St ,Bellflower,90706,4 Day,,
-13168085.5051,4021556.3721,4101,20560,Weingart YMCA Wellness and Aquatic Ctr,Gymnasium,9900 S Vermont Ave ,Los Angeles,90044,4 Day,,
-13179576.1473,4010568.9617,4102,20640,Hermosa Beach Community Center,Room 7,710 Pier Ave,Hermosa Beach,90254,11 Day,,
-13160154.4098,4014959.3896,4103,20771,Wilson Park,Ballroom,123 N Rose Ave,Compton,90221,4 Day,,
-13172261.2755,4024497.4632,4104,20849,Zion Hill Baptist Church,Gymnasium,7860 10th Ave ,Los Angeles,90043,11 Day,,
-13139739.5802,4022944.8271,4105,20889,Laurel Elementary School,Cafeteria,13550 Lambert Rd,Whittier,90605,4 Day,,
-13186985.149,4058536.1039,4106,21248,Vista Middle School,Library,15040 Roscoe Blvd,Panorama City,91402,4 Day,,
-13142341.8952,4051064.1364,4107,21263,Sierra Madre Christ Church,Fellowship Room,212 N Lima St,Sierra Madre,91024,4 Day,,
-13183524.005,4029120.9467,4108,22187,Grand View Boulevard Elementary School,Auditorium,3951 Grand View Blvd,Los Angeles,90066,4 Day,,
-13196994.6912,4052204.9482,4109,22333,Tarzana Recreation Center,Gymnasium,5655 Vanalden Ave,Tarzana,91356,4 Day,,
-13214109.8763,4047682.2326,4110,21529,Valley Outreach Synagogue,Annex,26668 Agoura Rd ,Calabasas,91302,4 Day,,
-13174422.2911,4024962.4986,4111,22364,Veteran's Memorial Building,Auditorium,330 Centinela Ave,Inglewood,90302,4 Day,,
-13150240.9388,4021123.5821,4112,21352,St George Greek Orthodox Church,Multi-Purpose Room,10830 Downey Ave,Downey,90241,11 Day,,
-13119683.3394,4029863.2368,4113,21472,Ron Hockwalt Academies,Multi-Purpose Room,476 S Lemon Ave,Walnut,91789,4 Day,,
-13110344.2484,4042204.1981,4114,21492,University of La Verne,Abraham Campus Ctr Ballrooms 3rd Floor,2000 2nd St,La Verne,91750,4 Day,,
-13227092.7358,4048418.3742,4115,21510,Westminster Presbyterian Church,Fellowship Center,32111 Watergate Rd,Westlake Village,91361,4 Day,,
-13213315.8255,4048431.8596,4116,21527,Cambria Hotel Calabasas,Meeting Room,26400 Rondell St,Calabasas,91302,4 Day,,
-13219813.1996,4048444.0074,4117,21535,Homewood Suites by Hilton Agoura Hills,Ventura Room A and B,28901 Canwood St ,Agoura Hills,91301,4 Day,,
-13120954.7698,4039983.6888,4118,21556,Charter Oak Adult Education,Multi-Purpose Room,1115 E Puente St,Covina,91724,4 Day,,
-13146320.5645,4031661.0027,4119,21576,La Merced Academy,Cafeteria,724 N Poplar Ave,Montebello,90640,4 Day,,
-13162526.4852,4044475.6277,4120,21755,Washington Irving Middle School,Auditorium Foyer,3010 Estara Ave,Los Angeles,90065,4 Day,,
-13180395.6021,4030578.3403,4121,21770,BioscienceLA,Seminar Room,4130 Overland Ave,Culver City,90230,4 Day,,
-13175754.0171,4050296.4327,4122,21784,Toluca Lake Elem School-Strohm Entrance,Library-Entrance on Strohm Ave,4915 Strohm Ave,North Hollywood,91601,4 Day,,
-13165438.4906,4023483.1141,4123,21807,South Park Elementary School,Auditorium,8510 Towne Ave ,Los Angeles,90003,4 Day,,
-13193037.6637,4063073.6813,4124,22133,Andasol Avenue Elementary School,Auditorium,10126 Encino Ave,Northridge,91325,4 Day,,
-13156744.4559,4042552.3963,4125,22157,Bushnell Way Elementary School,Auditorium,5507 Bushnell Way,Los Angeles,90042,4 Day,,
-13159298.2234,4037958.1728,4126,22184,Griffin Avenue Elementary School,Multi-Purpose Room,2025 Griffin Ave,Los Angeles,90031,4 Day,,
-13156017.3995,4044637.9148,4127,22198,Garvanza Elementary School,Multi-Purpose Room,317 N Avenue 62,Los Angeles,90042,4 Day,,
-13171246.1387,4032279.5994,4128,22228,Jefferson-V D Wright Mem Branch Library,Meeting Room,2211 W Jefferson Blvd ,Los Angeles,90018,4 Day,,
-13164601.7059,4042291.2548,4129,22330,Silver Lake Branch Library,Meeting Room,2411 Glendale Blvd,Los Angeles,90039,4 Day,,
-13143737.9742,4005294.5518,4130,22359,The Way Out Ministries,Multi-Purpose Room,22427 Norwalk Blvd,Hawaiian Gardens,90716,4 Day,,
-13175076.5958,4017637.0998,4131,22361,Courtyard by Marriott LA-LAX Hawthorne,Hangar Room and Aviation Room,4427 W El Segundo Blvd,Hawthorne,90250,4 Day,,
-13155389.7899,4125795.0552,4132,22374,A V Fair and Event Center,Van Dam Pavillion,2551 W Avenue H,Lancaster,93536,4 Day,,
-13106812.7223,4038316.7187,4133,22398,Emerson Middle School,Gymnasium,635 Lincoln Ave ,Pomona,91767,4 Day,,
-13158217.0726,4000572.3073,4134,22407,Goodwill SOLAC,Event Space,800 W Pacific Coast Hwy,Long Beach,90806,4 Day,,
-13161479.5257,4048522.9332,4135,22739,The Lighthouse Mission Church,Gymnasium,1479 E Broadway,Glendale,91205,4 Day,,
-13167599.6451,3993811.5622,4136,22951,The Grand Annex Music Hall,Grand Annex Music Hall,434 W 6th St,San Pedro,90731,4 Day,,
-13168077.3207,3993379.4523,4137,23013,Croatian American Club,The Hall,631 W 9th St,San Pedro,90731,4 Day,,
-13108268.6534,4036538.7633,4138,23150,African American Advisory Alliance,Cultural Center Community Space,406 W 2nd St,Pomona,91766,4 Day,,
-13179385.265,4026349.9962,4139,23231,Courtyard by Marriott LA West Side,Studio Ballroom,6333 Bristol Pkwy ,Culver City,90230,4 Day,,
-13161565.0793,4034945.9158,4140,23254,One Santa Fe,Gallery,300 S Santa Fe Ave,Los Angeles,90013,4 Day,,
-13164792.8963,4006395.7601,4141,23278,Carson Civic Center,East Wing Activity Room,801 E Carson St,Carson,90745,4 Day,,
-13180893.2247,4036514.0154,4142,23987,Roxbury Memorial Park Clubhouse,Lobby and Community Room,401 S Roxbury Dr,Beverly Hills,90212,4 Day,,
-13109123.3298,4042487.4164,4143,23932,Lighthouse Baptist Church,Youth Room,2600 N White Ave   ,La Verne,91750,4 Day,,
-13137942.1381,4042748.8321,4144,23988,Rio Hondo Elementary School,Science Lab Room 33,11425 Wildflower Rd,Arcadia,91006,4 Day,,
-13148878.0365,4049494.8044,4145,24251,Jefferson Branch Library,Auditorium,1500 E Villa St,Pasadena,91106,4 Day,,
-13174208.2112,4020914.4702,4146,24460,Dolores Huerta Elementary School,Library and Room 130,4125 W 105th St,Lennox,90304,4 Day,,
-13161092.1562,4013107.6643,4147,24465,Robert F Kennedy Elementary School,Library,1305 S Oleander Ave,Compton,90220,4 Day,,
-13156416.705,4119967.2053,4148,24464,Antelope Valley College,SCT Room 150 Student Lounge,3041 W Avenue K,Lancaster,93536,4 Day,,
-13190274.1705,4032685.3103,4149,24483,Lincoln Middle School,Theatre and Lobby,1501 California Ave,Santa Monica,90403,4 Day,,
-13161036.7644,4018144.7775,4150,24487,Ralph J Bunche Middle School,Cafeteria,12338 S Mona Blvd,Compton,90222,4 Day,,
-13152948.5265,4033115.4599,4151,24510,Arts in Action Charter Elem School,Rooms 102 and 103,5115 Via Corona St,Los Angeles,90022,4 Day,,
-13154144.0389,4031923.5494,4152,24511,Arts in Action Charter Middle School,Rooms 104 and 106,745 S Kern Ave,Los Angeles,90022,4 Day,,
-13167324.316,4032086.4658,4153,24456,USC Village,UVN 1200,3215 S Hoover St,Los Angeles,90007,4 Day,,
-13172366.8115,4007590.5763,4154,24540,Mary K Giordano Regional Transit Center,210 Training Room,465 Crenshaw Blvd,Torrance,90503,11 Day,,
-13104142.6873,4039929.8528,4155,24459,Claremont Unified School District,First Floor Conference Room,170 W San Jose Ave,Claremont,91711,4 Day,,
-13174823.3982,4040735.2496,4156,24486,C Norman Transgender Empowerment Ctr,Marsha P-Sylvia R Community Room,1001 N Martel Ave,Los Angeles,90046,4 Day,,
-13161897.3505,4009735.0325,4157,24556,Anderson Park,Classroom and Multi-Purpose Room,19101 Wilmington Ave,Carson,90746,4 Day,,
-13175662.2653,4020409.7745,4158,24473,Lennox Park,Community Room A,10828 Condon Ave,Lennox,90304,4 Day,,
-13183784.1679,4064999.8263,4159,24541,Telfair Elementary School,Library,10975 Telfair Ave,Pacoima,91331,4 Day,,
-13150539.0729,4054310.8394,4160,24606,Altadena Community Center,Community Room,730 E Altadena Dr,Altadena,91001,4 Day,,
-13177429.4088,4017827.0987,4161,24626,Del Aire Park,Community Room,12601 S Isis Ave,Hawthorne,90250,4 Day,,
-13163808.3722,4026662.8834,4162,24628,Mary M Bethune Park,Community Room,1244 E 61st St,Los Angeles,90001,4 Day,,
-13171027.058,4034926.7954,4163,24714,Pio Pico Middle School,Multi-Purpose Room,1512 Arlington Ave,Los Angeles,90019,4 Day,,
-13170671.2267,4028662.2867,4164,24720,Greater Bethel Cathedral,Bungalow 38 and Bungalow 39,4831 S Gramercy Pl,Los Angeles,90062,11 Day,,
-13177719.9601,4032237.3125,4165,24544,Jam City,Community Lounge,3562 Eastham Dr,Culver City,90232,4 Day,,
-13171715.2198,3940885.9651,4166,24803,Catalina Isl Conservancy Trailhead Ctr,Gallery,708 Crescent Ave,Avalon,90704,4 Day,,
-13138420.8959,4047788.829,4167,24852,Embassy Suites-Hilton Arcadia Pasadena,Iron Room,211 E Huntington Dr,Arcadia,91006,11 Day,,
-13167695.1947,4036886.267,4168,24942,Korea Daily,Gallery,690 Wilshire Pl,Los Angeles,90005,4 Day,,
-13178471.068,4017815.7465,4169,26028,Da Vinci Schools,Atrium and Hall of Champions-WDV Gym,201 N Douglas St ,El Segundo,90245,4 Day,,
-13170999.8808,4023469.3099,4170,26077,Salon Princesita,Salon,2145 W Manchester Ave ,Los Angeles,90047,11 Day,,
-13151708.0545,4010090.5778,4171,26103,National Polytechnic College,Satellite Classroom,4102 South St,Lakewood,90712,4 Day,,
-13176867.941,4047904.9506,4172,26852,AVA Studio City,Chill Lounge,10979 Bluffside Dr ,Studio City,91604,4 Day,,
-13128687.1097,4039124.0508,4173,26860,Del Norte Intermediate Property,Multi-Purpose Room,1501 Del Norte St,West Covina,91790,4 Day,,
-13170847.7133,4023405.7938,4174,26145,JA Venue,Main Room,2070 W Manchester Ave,Los Angeles,90047,4 Day,,
-13157706.8892,4004001.8164,4175,25299,Fil-Am Christian Fellowship-Long Beach,Dining Hall,3190 Magnolia Ave,Long Beach,90806,4 Day,,
-13169981.5266,4027304.0143,4176,25513,Vela Venue,Smaller Room,1732 W Slauson Ave ,Los Angeles,90047,4 Day,,
-13177441.3868,4035896.9374,4177,25584,The Nowhere-Pico Treasure,Pico Treasure,6140 W Pico Blvd,Los Angeles,90035,11 Day,,
-13150217.9579,4051708.8755,4178,26316,Morning Star Christian Church,Robinson Hall A-C,980 E Rio Grande St ,Pasadena,91104,11 Day,,
-13164222.6945,4031647.4118,4179,26345,Second Baptist Church,Griffith Hall,2412 Griffith Ave ,Los Angeles,90011,4 Day,,
-13150695.7575,4122418.5018,4180,26525,Lancaster Community Center,Multi-Purpose Room,44611 Yucca Ave ,Lancaster,93534,4 Day,,
-13175340.9644,4023624.7903,4181,26653,Inglewood High School,Auditorium,231 S Grevillea Ave,Inglewood,90301,4 Day,,
-13154500.2071,4037936.9424,4182,26923,Cal State LA University Student Union,308A-B Los Angeles Rooms A-B,5154 State University Dr,Los Angeles,90032,4 Day,,
-13165022.2452,4000430.2044,4183,25203,Machinists Union-Jack Irving Hall,IAM and AW Local Lodge 1484,1261 N Avalon Blvd ,Wilmington,90744,4 Day,,
-13168275.5386,4040195.5078,4184,26942,Braille Institute of Los Angeles,Weingart North,740 N New Hampshire Ave ,Los Angeles,90029,4 Day,,
-13122415.4739,4040539.7217,4185,27055,Tri-Community Adult School-Pioneer,Library,160 Barranca Ave ,Covina,91723,4 Day,,
-13109303.1099,4039704.3156,4186,26930,Fairplex,Expo Hall 5,1101 W McKinley Ave ,Pomona,91768,4 Day,,
-13162244.7875,4035467.7897,4187,27043,Japanese American National Museum,Democracy Lab,100 N Central Ave ,Los Angeles,90012,4 Day,,
-13179376.9185,4017746.5695,4188,26943,Cambria Hotel LAX,Hearst I and II,199 Continental Blvd ,El Segundo,90245,11 Day,,
-13203203.2996,4062221.7866,4189,27044,DoubleTree by Hilton Chatsworth,Roma Room,9777 Topanga Canyon Blvd ,Chatsworth,91311,11 Day,,
-13139451.8809,4031455.6941,4190,27037,Rio Hondo College,Administration Bldg A102 Boardroom,3600 Workman Mill Rd ,Whittier,90601,4 Day,,
-13199155.5536,4083354.4324,4191,27031,College of the Canyons,Hasley Hall Boardroom HSLH 137,26455 Rockwell Canyon Rd,Santa Clarita,91355,4 Day,,
-13163400.5427,4036438.5852,4192,27121,The Music Center,Ahmanson Theater-First Floor Lobby,135 N Grand Ave,Los Angeles,90012,11 Day,,
-13124872.0021,4026050.0369,4193,27120,Carolyn Rosas Park,Fitness Room,18500 Farjardo St,Rowland Heights,91748,11 Day,,
-13143211.1361,4017524.0014,4194,14772,LA County Registrar-Recorder,Room 3002,12400 Imperial Hwy ,Norwalk,90650,11 Day,,
